{"type":"FeatureCollection","features":[{"type":"Feature","properties":{"role":"median","scenario":"ssp126","month":"october","start_year":2041,"end_year":2060,"threshold_percent":15},"geometry":{"type":"MultiPolygon","coordinates":[[[[-96.0,79.0],[-97.0,79.0],[-98.0,79.0],[-98.0,78.81406523558513],[-98.14907792899993,78.81867096600007],[-98.36188717399995,78.76618073100008],[-98.31554114499994,78.74725983300004],[-98.37018795499995,78.72679271000004],[-98.31554114499994,78.70636627800008],[-98.31607011599993,78.64622630400004],[-98.0249731109999,78.55255768400008],[-98.3399145169999,78.54364655200004],[-98.32298743399991,78.52073802300004],[-98.40282141799992,78.51300690300008],[-98.40729732999995,78.48818594000005],[-98.21666419199994,78.41518789300005],[-98.03502356699994,78.39850495000007],[-98.09024003799993,78.36994049700007],[-98.01390540299991,78.33637116100005],[-98.06847083199995,78.30849844000005],[-98.0,78.29454195433529],[-98.0,78.0],[-97.49613885852379,78.0],[-97.0,77.92584677424416],[-97.0,77.92248475618067],[-97.1238500639999,77.87714264500005],[-97.08901933499993,77.84979889500005],[-97.10334225199995,77.80817291900007],[-97.0,77.80120210905872],[-97.0,77.0],[-97.0,76.0],[-97.0,75.50707584621898],[-97.05492102799991,75.49921295800004],[-97.0,75.4558870622775],[-97.0,75.0],[-96.61429530179262,75.0],[-96.61611894399994,74.99152252800008],[-96.42346155224948,75.0],[-96.3298148736227,75.0],[-96.33169511599993,74.97825755400004],[-96.39761308499993,74.98529694200005],[-96.40379798099991,74.93691640800006],[-96.26667232999995,74.90961334800005],[-96.20579993399991,74.93065013200004],[-96.16236030310287,75.0],[-96.09284448938834,75.0],[-96.14313717399995,74.95799388200004],[-96.05455481699994,74.97272370000007],[-96.0332738919999,74.95058828300006],[-96.13687089799993,74.93691640800006],[-95.87002519399994,74.85496653900003],[-95.92467200399994,74.83441803600005],[-95.89757239499994,74.82587311400005],[-95.7390844389999,74.82078685100004],[-95.71890214799993,74.84658437700006],[-95.67642167899993,74.81891510600008],[-95.51488196499992,74.81411367400005],[-95.49205481699994,74.79975006700005],[-95.54662024599992,74.77301666900007],[-95.51134192599994,74.74359772300005],[-95.45173092399995,74.74510325700004],[-95.48021399599992,74.78131745000007],[-95.46043860599991,74.80426666900007],[-95.38280188699991,74.80719635600008],[-95.46471106699994,74.77985260600008],[-95.44245357999995,74.77293528900003],[-95.30540930899991,74.80548737200007],[-95.05382239499994,74.73143138200004],[-95.08861243399991,74.69049713700008],[-95.06696529899995,74.68207428600005],[-95.0,74.6736732866461],[-95.0,74.03988095912707],[-95.24864661399994,74.00991445500006],[-95.26629211579052,74.0],[-96.0,74.0],[-97.0,74.0],[-97.76978259770276,74.0],[-97.64321855399993,74.07221100500004],[-97.72524980399993,74.12164948100008],[-98.17300370999993,74.09772370000007],[-98.95030161027489,74.0],[-99.0,74.0],[-100.0,74.0],[-101.0,74.0],[-101.0,73.80362817607102],[-101.0049448339999,73.80239492400005],[-101.02919613599994,73.77871328300006],[-101.0,73.77493320393818],[-101.0,73.76596408766349],[-101.11855160499994,73.72406647300005],[-101.0161753029999,73.71723053600005],[-101.0479135839999,73.68256256700005],[-101.0,73.67910499148843],[-101.0,73.60380309447649],[-101.22983903999994,73.60614655200004],[-101.26938982099995,73.56004466400003],[-101.43715511999994,73.55341217700004],[-101.53159685199995,73.49555084800005],[-101.62563168299994,73.49135976800005],[-101.56321306299992,73.44953034100007],[-101.31484066699994,73.40045807500007],[-101.28896176099994,73.36005280200004],[-101.02919613599994,73.32623932500007],[-101.03159685199995,73.30243561400005],[-101.0,73.29523398910766],[-101.0,73.0],[-101.77766770961267,73.0],[-101.76283871399994,73.01898834800005],[-101.9813038829999,73.06610748900005],[-101.9478159279999,73.09345123900005],[-102.28293962499993,73.08722565300008],[-102.48476254199994,73.04124583500004],[-102.55851385136091,73.0],[-103.0,73.0],[-104.0,73.0],[-105.0,73.0],[-105.0,73.0238641438911],[-104.98131262899994,73.03571198100008],[-104.99038652299993,73.07977936400005],[-104.76183020699995,73.17300039300005],[-104.73656165299991,73.18964264500005],[-104.74982662699995,73.21747467700004],[-104.57266191299993,73.33218008000006],[-104.58633378799993,73.38519928600005],[-104.55162512899994,73.42645905200004],[-104.57949785099993,73.44969310100004],[-104.4895727199999,73.53229401200008],[-104.50084387899994,73.56720612200007],[-104.68089758999992,73.62982819200005],[-104.82457434799994,73.63816966400003],[-105.0,73.70557206877189],[-105.0,74.0],[-106.0,74.0],[-107.0,74.0],[-108.0,74.0],[-108.0,73.60632488713958],[-108.08763587099992,73.59064362200007],[-108.0,73.54941440849052],[-108.0,73.34885771986688],[-108.08763587099992,73.35415273600006],[-108.01317298099991,73.31317780200004],[-108.1565649079999,73.30634186400005],[-108.1187231109999,73.26878489800004],[-108.0,73.23132278701262],[-108.0,73.19697096408518],[-108.16494706899994,73.20612213700008],[-108.29832923099991,73.13377513200004],[-108.1565649079999,73.05247630400004],[-108.2346899079999,73.04291413000004],[-108.16187412639961,73.0],[-109.0,73.0],[-110.0,73.0],[-110.57490611253479,73.0],[-110.73570716099994,73.00136953300006],[-110.73607911368511,73.0],[-111.0,73.0],[-112.0,73.0],[-112.91132084151029,73.0],[-113.01500403599994,73.01601797100005],[-113.14019108225293,73.0],[-114.0,73.0],[-114.04164811305026,73.0],[-113.95836341099994,73.14012278900003],[-114.02269446499992,73.21185944200005],[-114.26512610599991,73.33567942900004],[-114.5842992829999,73.38458893400008],[-115.0,73.30753807274473],[-115.0,74.0],[-116.0,74.0],[-116.63582960176636,74.0],[-116.86701412699995,74.08755117400005],[-117.41649329299992,74.23248932500007],[-118.0659887359999,74.28070709800005],[-118.7254125639999,74.22077057500007],[-118.88316809799994,74.17869700700004],[-118.79552161399994,74.12759023600006],[-118.80508378799993,74.10138580900008],[-118.95189368399991,74.01756419500003],[-119.116135796029,74.0],[-119.18417169682964,74.0],[-119.13963782499991,74.06769440300008],[-119.06924394399994,74.09052155200004],[-119.07677161399994,74.11994049700007],[-119.13467363199993,74.12872955900008],[-119.0979711579999,74.16429271000004],[-119.14435787699995,74.20905182500007],[-119.47988847599993,74.22614166900007],[-119.62120520699995,74.13434479400007],[-119.74693762899994,74.09731679900005],[-119.73013261599993,74.04645416900007],[-119.76524817599994,74.03534577000005],[-119.82201087099992,74.05540599200003],[-119.81798255099994,74.10431549700007],[-119.68504798099991,74.16571686400005],[-119.64745032499991,74.19521719000005],[-119.66222083199995,74.22500234600005],[-119.51829993399991,74.23114655200004],[-119.85952714799993,74.23651764500005],[-120.1565649079999,74.27899811400005],[-120.97752844999991,74.42357005400004],[-121.01158606699994,74.47040436400005],[-121.1323949859999,74.50995514500005],[-121.58079993399991,74.55585358300004],[-122.0,74.51854480966836],[-122.0,75.0],[-123.0,75.0],[-123.0,74.45550806794287],[-123.3035375639999,74.44940827000005],[-124.75568600199989,74.34857819200005],[-124.78726152299993,74.33421458500004],[-124.60293535099993,74.31370677300004],[-124.69391842399995,74.27570221600007],[-124.54564368399991,74.26512278900003],[-124.43907630099994,74.13556549700007],[-124.46580969999991,74.07416413000004],[-124.38385982999989,74.03937409100007],[-124.36333442281392,74.0],[-125.0,74.0],[-125.0,75.0],[-126.0,75.0],[-126.0,74.0],[-127.0,74.0],[-128.0,74.0],[-129.0,74.0],[-130.0,74.0],[-131.0,74.0],[-132.0,74.0],[-133.0,74.0],[-134.0,74.0],[-135.0,74.0],[-136.0,74.0],[-137.0,74.0],[-138.0,74.0],[-139.0,74.0],[-140.0,74.0],[-141.0,74.0],[-142.0,74.0],[-143.0,74.0],[-144.0,74.0],[-145.0,74.0],[-146.0,74.0],[-147.0,74.0],[-147.0,75.0],[-148.0,75.0],[-149.0,75.0],[-150.0,75.0],[-150.0,76.0],[-150.0,80.0],[-100.17208994555702,80.0],[-100.13853919199994,79.94989655200004],[-100.18008378799993,79.91168854400007],[-100.07022050699993,79.87815989800004],[-99.58360755099994,79.89866771000004],[-99.3118383449999,79.84837474200003],[-99.29564368399991,79.81610748900005],[-99.33653723899994,79.80927155200004],[-99.30304928299995,79.78880442900004],[-99.33039303299995,79.76829661700003],[-98.95885169199994,79.72817617400005],[-98.84019934799994,79.66986725500004],[-98.65135657499991,79.79222239800004],[-98.69570878799993,79.86774323100008],[-98.77505449099993,79.90468984600005],[-98.70596269399994,79.96698639500005],[-98.76949434016649,80.0],[-97.0,80.0],[-96.65004652479436,80.0],[-96.5579320949999,79.94855377800008],[-96.13687089799993,79.91168854400007],[-96.3902074859999,79.88499583500004],[-96.37726803299995,79.90497467700004],[-96.40640214799993,79.91331614800004],[-96.56126868399991,79.90509674700007],[-96.61611894399994,79.88499583500004],[-96.58877519399994,79.85712311400005],[-96.3902074859999,79.86448802300004],[-96.49323482999995,79.83722565300008],[-96.2852270169999,79.80646393400008],[-96.23814856699994,79.74339427300004],[-96.0,79.68702715154498],[-96.0,79.0]],[[-122.0,76.42411816477028],[-122.40322831899994,76.40420156500005],[-122.6172582669999,76.34320709800005],[-122.64964758999992,76.30052317900004],[-122.63438880099994,76.27260976800005],[-122.71108964799993,76.23163483300004],[-122.74697831899994,76.23016998900005],[-122.83165442599994,76.23729075700004],[-122.86172441299993,76.18235911700003],[-122.92467200399994,76.18895091400003],[-122.94448808499993,76.17767975500004],[-122.91030839799993,76.15717194200005],[-123.04067949099993,76.08828359600005],[-122.92540442599994,76.09707265800006],[-122.82835852799991,76.15428294500003],[-122.60582434799994,76.17426178600005],[-122.49258378799993,76.14350006700005],[-122.70490475199995,76.11562734600005],[-122.48298092399995,76.10236237200007],[-122.52611243399991,76.06159088700008],[-122.6980688139999,76.02065664300005],[-122.56029212099992,76.02680084800005],[-122.5979711579999,76.00336334800005],[-122.73155676999994,75.97842031500005],[-122.42589270699995,75.93280670800004],[-122.13573157499991,75.97842031500005],[-122.1499731109999,76.03363678600005],[-122.12547766799992,76.04120514500005],[-122.0,76.04302073858142],[-122.0,76.0],[-121.57056405603564,76.0],[-121.49486243399991,75.98761627800008],[-121.29967200399994,75.91079336100006],[-121.25869706899994,75.96539948100008],[-121.11839074987455,76.0],[-121.02425338699011,76.0],[-120.98436438699991,75.98582591400003],[-121.01414954299992,75.95038483300004],[-120.95348059799994,75.95819733300004],[-120.96445671719681,76.0],[-120.65572919224422,76.0],[-120.59618079299992,75.98688385600008],[-120.53379503125421,76.0],[-120.43937340842454,76.0],[-120.44985917899993,75.98212311400005],[-120.38849850199995,75.97223541900007],[-120.45368404899995,75.93402741100005],[-120.48900305899991,75.84707265800006],[-120.38744055899991,75.80670807500007],[-120.25967363199993,75.83274974200003],[-120.16087805899991,75.89834219000005],[-120.04434160099993,75.84267812700006],[-119.86294511599993,75.85911692900004],[-119.70201575399994,75.92177969000005],[-119.6070043609999,75.91693756700005],[-119.70323645699995,75.94428131700005],[-119.63532467399995,75.99555084800005],[-119.48595130099994,75.97492096600007],[-119.48827465449371,76.0],[-119.0,76.0],[-118.13609125667655,76.0],[-118.17446855399993,75.97223541900007],[-118.62120520699995,75.92206452000005],[-118.99205481699994,75.76154205900008],[-119.3321020169999,75.66079336100006],[-119.40904700399994,75.60162995000007],[-118.61392167899993,75.50372955900008],[-118.20238196499992,75.60162995000007],[-118.27065995999993,75.61591217700004],[-118.0,75.71181608852211],[-118.0,75.0],[-117.0,75.0],[-116.0,75.0],[-115.89340882336211,75.0],[-115.71544348899994,74.97036367400005],[-115.58433997299994,74.99542877800008],[-115.5794971518634,75.0],[-115.18654749737794,75.0],[-115.05768795499989,74.96674225500004],[-114.85495879763184,75.0],[-114.0,75.0],[-114.0,74.80016327553429],[-114.43980872299994,74.68366120000007],[-114.39232337099992,74.63930898600006],[-114.17349199099993,74.56696198100008],[-114.0,74.5227368039506],[-114.0,74.0],[-113.0,74.0],[-112.0,74.0],[-111.0,74.0],[-111.0,74.61661518563642],[-110.58901933499993,74.72528717700004],[-110.66612708199995,74.79132721600007],[-110.34398352799991,74.79657623900005],[-110.31468665299991,74.80719635600008],[-110.41087805899991,74.82762278900003],[-110.30785071499992,74.85219961100006],[-110.06981360599991,74.82363515800006],[-109.88385982999995,74.87055084800005],[-109.53233801999994,74.86701080900008],[-109.38988196499992,74.90338776200008],[-109.41030839799993,74.90961334800005],[-109.35716712099992,74.94672272300005],[-108.9786122594773,75.0],[-108.54246783301582,75.0],[-108.51219641799992,74.97846100500004],[-108.80703691299993,74.98529694200005],[-108.41661536399994,74.91705963700008],[-107.94424394399994,74.93691640800006],[-108.01878821499992,74.95058828300006],[-107.94713294199994,74.97211334800005],[-107.97762346764327,75.0],[-107.7031267922101,75.0],[-107.68626868399991,74.98224518400008],[-107.23102779899995,74.92011139500005],[-107.0051977199999,74.92381419500003],[-106.76951501185692,75.0],[-106.0,75.0],[-106.0,75.12936085136727],[-105.83950761599993,75.18329498900005],[-105.93944251199991,75.21466705900008],[-105.88451087099992,75.26650625200006],[-105.66136633999992,75.35521067900004],[-105.7090551419999,75.41974518400008],[-105.59312903599994,75.46507396000004],[-105.7508031889999,75.49237702000005],[-105.49364173099991,75.56549713700008],[-105.46336829299992,75.61591217700004],[-105.39513098899994,75.64325592700004],[-105.46336829299992,75.73261139500005],[-105.42243404899995,75.74567291900007],[-105.46654212099992,75.85773346600007],[-105.60680091099994,75.93744538000004],[-105.75991777299993,75.99017975500004],[-106.33983313699991,76.06159088700008],[-106.63174394399994,76.05853913000004],[-106.78454923037268,76.0],[-107.0,76.0],[-107.65970347183006,76.0],[-107.73070227799991,76.03900788000004],[-107.88902747299994,76.06777578300006],[-108.0,76.06280995666471],[-108.0,77.0],[-109.0,77.0],[-110.0,77.0],[-110.0,77.9313471280779],[-109.78685462099992,77.94977448100008],[-109.67625891799992,77.97699616100005],[-109.58153235599991,78.05410390800006],[-109.69717363199993,78.09735748900005],[-110.0,78.09928856286633],[-110.0,78.3245005528852],[-109.96043860599991,78.32908763200004],[-109.82323157499991,78.29539622600004],[-109.40868079299992,78.30988190300008],[-109.32510331899994,78.37384674700007],[-109.35570227799991,78.39105866100005],[-109.31411699099993,78.41087474200003],[-109.33433997299994,78.42837148600006],[-109.25951087099992,78.45929596600007],[-109.26646887899994,78.49359772300005],[-109.3196508449999,78.49579498900005],[-109.40689042899993,78.55902741100005],[-109.8401586579999,78.63629791900007],[-109.88727779899995,78.67593008000006],[-110.0,78.6948162760742],[-110.0,79.0],[-111.0,79.0],[-112.0,79.0],[-112.0,78.55337774281162],[-112.15005449099993,78.55703359600005],[-112.68203691299993,78.49827708500004],[-113.21422278599994,78.40656159100007],[-113.2207738919999,78.36371491100005],[-113.33617102799991,78.33637116100005],[-113.24828040299991,78.28497955900008],[-113.06151282499991,78.27435944200005],[-112.17552649599992,78.37738678600005],[-112.0,78.3496663604492],[-112.0,78.03308297101333],[-112.29752410701957,78.0],[-113.0,78.0],[-113.0,77.90049405120702],[-113.14110266799992,77.92251211100006],[-113.24128170499989,77.90497467700004],[-113.21328691299993,77.89077383000006],[-113.32315019399994,77.80817291900007],[-113.30557206899994,77.77684153900003],[-113.18602454299992,77.73993561400005],[-113.22667395699995,77.73444245000007],[-113.20677649599992,77.69379303600005],[-113.25426184799994,77.67161692900004],[-113.08975175699993,77.62323639500005],[-113.24128170499989,77.58226146000004],[-113.16588294199994,77.51508209800005],[-113.03506425699993,77.51845937700006],[-113.0,77.49768451761645],[-113.0,77.0],[-114.0,77.0],[-115.0,77.0],[-115.0,76.48499818478159],[-115.02147376199991,76.47907135600008],[-115.51231848899994,76.45620351800005],[-115.91331946499992,76.34902578300006],[-115.8518774079999,76.32225169500003],[-115.92699133999992,76.28685130400004],[-115.77944902299993,76.23729075700004],[-115.27928626199991,76.23704661700003],[-115.0,76.18216144519867],[-115.0,76.17287713754946],[-116.0,76.19951007099577],[-116.0,76.66947661900971],[-115.89281165299991,76.69843170800004],[-116.0,76.792920855402],[-116.0,76.90407832362654],[-115.90709387899994,76.89704010600008],[-115.73204505099994,76.94855377800008],[-116.0,76.99950374229931],[-116.0,77.0],[-116.0026099077538,77.0],[-116.22166907499991,77.04165273600006],[-116.28990637899994,77.11188385600008],[-116.40054277299993,77.13727448100008],[-116.30182857999989,77.14826080900008],[-116.24722245999993,77.19594961100006],[-115.9278051419999,77.21234772300005],[-115.39256751199991,77.30792877800008],[-115.44782467399995,77.34886302300004],[-115.77651933499993,77.42983633000006],[-116.08665930899991,77.46027252800008],[-116.12559973899994,77.47239817900004],[-116.06411699099993,77.48672109600005],[-116.42723548099991,77.54816315300008],[-116.40672766799992,77.56240469000005],[-116.90074622299994,77.53636302300004],[-116.92813066299993,77.52765534100007],[-116.75682532499991,77.51337311400005],[-117.15404212099992,77.45872630400004],[-116.99400794199994,77.39956289300005],[-116.64696204299992,77.39044830900008],[-116.8108617829999,77.34267812700006],[-116.77733313699991,77.32904694200005],[-116.81309973899994,77.31659577000005],[-117.18138587099992,77.34886302300004],[-117.0100805329999,77.30170319200005],[-117.03921464799993,77.29279205900008],[-117.23110917899993,77.28571198100008],[-117.47435462099992,77.33588288000004],[-117.9622289699999,77.37002187700006],[-117.8523656889999,77.39044830900008],[-119.16270911399994,77.32489655200004],[-119.28970292899993,77.28880442900004],[-119.38731848899994,77.19253164300005],[-119.8269750639999,77.09857819200005],[-119.83665930899991,77.06525299700007],[-119.92235266799992,77.04726797100005],[-119.93081620999993,77.02008698100008],[-120.0911352199999,77.00560130400004],[-120.09148530158807,77.0],[-121.0,77.0],[-122.0,77.0],[-122.0,76.42411816477028]],[[-98.0,77.0],[-99.0,77.0],[-100.0,77.0],[-101.0,77.0],[-102.0,77.0],[-102.0,76.42001177074184],[-102.03514563699991,76.41278717700004],[-102.05768795499995,76.39671458500004],[-102.0,76.38144960528687],[-102.0,76.36301909729039],[-102.09862219999991,76.34902578300006],[-102.05211341099994,76.32306549700007],[-102.19481360599991,76.29433828300006],[-102.05768795499995,76.28001536700003],[-102.1675512359999,76.23908112200007],[-102.0,76.23005816816102],[-102.0,76.0],[-101.74693511585579,76.0],[-101.70995032499991,75.98969147300005],[-101.57465260437081,76.0],[-101.36496550754289,76.0],[-101.58946692599994,75.92450592700004],[-101.55060787699995,75.86981842700004],[-101.37181555899991,75.85179271000004],[-101.3274633449999,75.81793854400007],[-101.35875403599994,75.77973053600005],[-101.0,75.80774027940637],[-101.0,75.79803282199944],[-101.27578691299993,75.74567291900007],[-101.44591223899994,75.76410553600005],[-101.47484290299991,75.77358633000006],[-101.4544164699999,75.81452057500007],[-101.83299719999991,75.90582916900007],[-102.26227779899995,75.86981842700004],[-102.37413489499994,75.81049225500004],[-102.32583574099993,75.78375885600008],[-102.11896725199995,75.79950592700004],[-102.09117591099994,75.78725820500006],[-102.23582923099991,75.74567291900007],[-102.00926673099991,75.70465729400007],[-102.10606848899994,75.69798411700003],[-102.24673417899993,75.72443268400008],[-102.56187903599994,75.72553131700005],[-102.5852758449999,75.71149323100008],[-102.53062903599994,75.69847239800004],[-102.68765214799993,75.67796458500004],[-102.66714433499993,75.65009186400005],[-102.7019750639999,75.63580963700008],[-102.63304602799991,75.61591217700004],[-102.82140051999994,75.63739655200004],[-102.8816625639999,75.61782461100006],[-102.72862708199995,75.57436758000006],[-102.77611243399991,75.54498932500007],[-102.6858617829999,75.53668854400007],[-102.63341223899994,75.49811432500007],[-102.40029863199993,75.54022858300004],[-101.44937089799993,75.60765208500004],[-101.36115475199995,75.57831452000005],[-101.0,75.60636487322783],[-101.0,75.0],[-100.01386837055502,75.0],[-99.64541581899994,74.97601959800005],[-99.42593339799993,74.99152252800008],[-99.44148947471113,75.0],[-99.40434844280276,75.0],[-99.40550696499992,74.99896881700005],[-99.35882173530547,75.0],[-99.0,75.0],[-98.78595071708793,75.0],[-98.7891332669999,74.99896881700005],[-98.75023352799991,74.98843008000006],[-98.40617303618366,75.0],[-98.0,75.0],[-98.0,75.01365861424533],[-97.97581946499992,75.01447174700007],[-97.94432532499991,75.05255768400008],[-97.97325598899994,75.11196523600006],[-98.0,75.12073095454487],[-98.0,75.15649045169373],[-97.81285559799994,75.11310455900008],[-97.56883704299992,75.14980703300006],[-97.80223548099991,75.19757721600007],[-97.73330644399994,75.21124909100007],[-97.8977758449999,75.30548737200007],[-97.91148841099994,75.26650625200006],[-98.0,75.27940411538468],[-98.0,75.27989839176279],[-97.89098059799994,75.32786692900004],[-97.93053137899994,75.33954498900005],[-98.0,75.31063319311951],[-98.0,75.37152129487693],[-97.87999426999994,75.37433502800008],[-98.0,75.39321564420239],[-98.0,75.41668026985063],[-97.77428137899994,75.42413971600007],[-98.0,75.44705493318345],[-98.0,75.46489607709852],[-97.94562740799995,75.47134023600006],[-98.0,75.47902231977909],[-98.0,75.49720411367464],[-97.92369544199994,75.51959870000007],[-97.77383378799993,75.46015045800004],[-97.74742591099994,75.47540924700007],[-97.76121985599991,75.50006745000007],[-97.8562719389999,75.54767487200007],[-97.72423255099994,75.57221100500004],[-97.47948157499991,75.49237702000005],[-97.49876868399991,75.45453522300005],[-97.47227942599994,75.42450592700004],[-97.28087317599994,75.40302155200004],[-97.37340247299994,75.44163646000004],[-97.42487545499995,75.51972077000005],[-97.37751217399995,75.67983633000006],[-97.93936113199993,75.74567291900007],[-97.66763261599993,75.80243561400005],[-97.57022050699993,75.86522044500003],[-97.65453040299991,75.98212311400005],[-97.58242753799993,76.08917877800008],[-97.50145423099991,76.14378489800004],[-97.50674394399994,76.19065989800004],[-97.78856360599991,76.32225169500003],[-97.73306230399993,76.39557526200008],[-97.66844641799992,76.42035553600005],[-97.69920813699991,76.46564362200007],[-97.66510982999995,76.48615143400008],[-98.0,76.52634523454947],[-98.0,77.0]],[[-103.0,75.0],[-103.0,75.76931872193825],[-102.6048070949999,75.77260976800005],[-102.50450598899994,75.79905833500004],[-102.38866126199991,75.89036692900004],[-101.98131262899994,75.95172760600008],[-102.21467037699995,75.99266185100004],[-103.0,75.91083423041144],[-103.0,75.95326765986711],[-102.35594641799992,76.01312897300005],[-102.31851152299993,76.04413483300004],[-102.44383704299992,76.08991120000007],[-103.11302649599992,76.05036041900007],[-103.39810082550935,76.0],[-104.0,76.0],[-104.0,75.40653780959761],[-104.1309301419999,75.43561432500007],[-104.40322831899994,75.43260325700004],[-104.70225989499994,75.33315664300005],[-104.77065995999993,75.27952708500004],[-104.6887914699999,75.26650625200006],[-104.92955481699994,75.14109935100004],[-104.59585527299993,75.04946523600006],[-104.22948157499991,75.01886627800008],[-104.0,75.05415267093154],[-104.0,75.0],[-103.0,75.0]],[[-104.0,76.04811871854581],[-103.81143144399994,76.03363678600005],[-102.83763587099992,76.08063385600008],[-102.62621008999992,76.15717194200005],[-102.53062903599994,76.15717194200005],[-102.5852758449999,76.18447500200006],[-102.54157467399995,76.23135000200006],[-102.7266332669999,76.31561920800004],[-104.0,76.23778908978927],[-104.0,76.3273496903164],[-103.3362524079999,76.33173248900005],[-103.01040605399993,76.42348867400005],[-103.07005774599992,76.46458567900004],[-103.23424231699994,76.47361888200004],[-103.24937903599994,76.50657786700003],[-103.57974199099993,76.52684153900003],[-103.5579320949999,76.56806061400005],[-103.79613196499992,76.62311432500007],[-103.88296464799993,76.57786692900004],[-104.0,76.57131664576279],[-104.0,76.59945449720935],[-103.92471269399994,76.64008209800005],[-104.0,76.66298096519681],[-104.0,77.0],[-105.0,77.0],[-105.0,76.0],[-104.0,76.0],[-104.0,76.04811871854581]],[[-105.0,77.17320602529456],[-104.79116777299993,77.10993073100008],[-104.4500219389999,77.15176015800006],[-104.37108313699991,77.23476797100005],[-104.39720618399991,77.27326080900008],[-104.47647050699993,77.28742096600007],[-104.42125403599994,77.30792877800008],[-104.74852454299992,77.41766998900005],[-105.0,77.41479926443543],[-105.0,77.46384236088872],[-104.95201575399994,77.48700592700004],[-104.99608313699991,77.53709544500003],[-105.0,77.53851707229563],[-105.0,78.0],[-106.0,78.0],[-106.0,77.74901569382102],[-106.09365800699993,77.72964101800005],[-106.0,77.6885720583992],[-106.0,77.0],[-105.0,77.0],[-105.0,77.17320602529456]],[[-104.0,78.0],[-103.0,78.0],[-102.0,78.0],[-101.0,78.0],[-100.8020315521529,78.0],[-100.61628170499995,77.90062083500004],[-100.61001542899993,77.86395905200004],[-99.93858801999994,77.78290436400005],[-99.79674231699994,77.81940338700008],[-99.18224036399994,77.84369538000004],[-99.02904212099992,77.88271719000005],[-99.10383053299995,77.96588776200008],[-98.97008216099994,78.00405508000006],[-98.94615637899994,78.06891510600008],[-99.0,78.08484442547483],[-99.0,79.0],[-100.0,79.0],[-101.0,79.0],[-101.38001864621313,79.0],[-101.64842688699991,79.08100006700005],[-101.91030839799993,79.09121328300006],[-102.42076575399994,79.01422760600008],[-102.40842535842756,79.0],[-102.65906918439356,79.0],[-102.61876380099994,79.09674713700008],[-102.89370683499993,79.17186107000003],[-102.92784583199995,79.21344635600008],[-102.87946529899995,79.23330312700006],[-103.72158769399994,79.36334870000007],[-105.15684973899994,79.29987213700008],[-105.45689856699994,79.32929108300004],[-105.48387610599991,79.30219147300005],[-105.42552649599992,79.28510163000004],[-105.56078040299991,79.23550039300005],[-105.62783769399994,79.16502513200004],[-105.60704505099994,79.05540599200003],[-105.56346594999991,79.02594635600008],[-105.40249589799993,79.01288483300004],[-104.95335852799991,79.05385976800005],[-104.6785375639999,79.01113515800006],[-104.69980605879536,79.0],[-105.0,79.0],[-105.0,78.84283293208472],[-105.03184973899994,78.82615794500003],[-105.0,78.81448988292053],[-105.0,78.51973681991683],[-105.04637610599991,78.50478750200006],[-105.0,78.45018772550871],[-105.0,78.0],[-104.0,78.0]],[[-121.0921117829999,75.73411692900004],[-120.99111894399994,75.76300690300008],[-120.9024145169999,75.82510000200006],[-120.86827551999994,75.91693756700005],[-120.99795488199993,75.93060944200005],[-121.04369055899991,75.90827057500007],[-120.99795488199993,75.86981842700004],[-121.02261308499993,75.82347239800004],[-121.29344641799992,75.75995514500005],[-121.0921117829999,75.73411692900004]],[[-114.35098222599993,78.03473541900007],[-114.2827856109999,78.06207916900007],[-114.32725989499994,78.08079661700003],[-114.67967688699991,78.03449127800008],[-114.79507402299993,77.98285553600005],[-115.11823482999989,77.95966217700004],[-114.51610266799992,77.76044342700004],[-114.65269934799994,77.76788971600007],[-114.62132727799991,77.75682200700004],[-114.30068925699993,77.71328359600005],[-114.16258704299992,77.70673248900005],[-113.57701575399994,77.81500885600008],[-113.73729407499991,77.90167877800008],[-113.95132402299993,77.91885000200006],[-114.11461341099994,78.00043366100005],[-114.25780188699991,77.98944733300004],[-114.35098222599993,78.03473541900007]],[[-97.26036536399994,74.59796784100007],[-97.50304114499994,74.62303294500003],[-97.79478919199994,74.49188873900005],[-97.63621985599991,74.45994700700004],[-97.37706458199995,74.51235586100006],[-97.26036536399994,74.59796784100007]],[[-95.7176000639999,74.53253815300008],[-95.34959876199991,74.49591705900008],[-95.25560462099992,74.51878489800004],[-95.36229407499991,74.59080638200004],[-95.56322180899991,74.64288971600007],[-95.7122289699999,74.63202545800004],[-95.75210527299993,74.61448802300004],[-95.73281816299993,74.58746979400007],[-95.87002519399994,74.58124420800004],[-95.7176000639999,74.53253815300008]],[[-102.53062903599994,77.83612702000005],[-102.49889075399994,77.78237539300005],[-102.41331946499992,77.76044342700004],[-102.44871985599991,77.73993561400005],[-101.7905981109999,77.67938873900005],[-101.55797278599994,77.73069896000004],[-100.93199622299994,77.74453359600005],[-101.21434485599991,77.84072500200006],[-101.72520911399994,77.90648021000004],[-102.44847571499992,77.88129303600005],[-102.53062903599994,77.83612702000005]]],[[[-111.0,75.25055460767976],[-110.9180395169999,75.23236725500004],[-111.0,75.22004525720001],[-111.0,75.25055460767976]]],[[[-111.0,76.0],[-112.0,76.0],[-112.0672245390474,76.0],[-112.11803137899994,76.01239655200004],[-112.36461341099994,76.03363678600005],[-112.52574622299994,76.12099844000005],[-112.42564856699994,76.17084381700005],[-112.75462805899991,76.20498281500005],[-112.9942113919999,76.27326080900008],[-113.0,76.27314504992724],[-113.0,77.0],[-112.0,77.0],[-111.0,77.0],[-110.0,77.0],[-110.0,76.47433955487098],[-110.3836156889999,76.43085358300004],[-110.39720618399991,76.39671458500004],[-110.32835852799991,76.34149811400005],[-110.3836156889999,76.30052317900004],[-110.14696204299992,76.27631256700005],[-110.0,76.22700591908166],[-110.0,76.0],[-110.0,75.90588555958168],[-110.05459550699993,75.89647044500003],[-110.0,75.88149181913076],[-110.0,75.5436123080277],[-110.06826738199993,75.54767487200007],[-110.41869055899991,75.53986237200007],[-110.51357988199993,75.57330963700008],[-111.0,75.53937647173086],[-111.0,76.0]]],[[[-87.0,68.0],[-87.0,67.33123842486587],[-87.07770748599995,67.35765208500004],[-87.0,67.28964452547038],[-87.0,67.25814424983683],[-87.07066809799994,67.26337311400005],[-87.11412512899994,67.17894114800004],[-87.13719641799992,67.22882721600007],[-87.22813880099994,67.22809479400007],[-87.28929602799991,67.09760163000004],[-87.32778886599993,67.17328522300005],[-87.37218176999994,67.18012116100005],[-87.51618404899995,67.11871979400007],[-87.50194251199991,67.19379303600005],[-87.36294511599993,67.26719798400006],[-87.44737708199995,67.26386139500005],[-87.48379472599993,67.36310455900008],[-87.9407445949999,67.60468170800004],[-88.0,67.62426857601703],[-88.0,68.0],[-87.0,68.0]]],[[[-84.0,74.0],[-84.0,73.50654867594153],[-84.00751705599993,73.50495026200008],[-84.0,73.50387792876107],[-84.0,73.45880460845729],[-84.18219967399995,73.47768789300005],[-84.65802975199995,73.39508698100008],[-84.57258053299995,73.32200755400004],[-84.34264075399994,73.23126862200007],[-84.63133704299992,73.29999420800004],[-84.79723059799994,73.39093659100007],[-85.0,73.3466191182862],[-85.0,73.6557434528113],[-84.9519750639999,73.66766998900005],[-84.8367406889999,73.74518463700008],[-85.0,73.78574012747667],[-85.0,74.0],[-85.0,74.70048184181694],[-84.95718339799993,74.68109772300005],[-84.99437415299991,74.64887116100005],[-84.98745683499993,74.57440827000005],[-84.9148656889999,74.51235586100006],[-84.25829016799992,74.50649648600006],[-84.04393469999991,74.54315827000005],[-84.0,74.54340727548887],[-84.0,74.0]]],[[[-84.0,73.04257274231419],[-84.45885169199994,73.06244538000004],[-85.0,73.12780724509022],[-85.0,73.19516464565679],[-84.56920325399994,73.11456940300008],[-84.0,73.06459627016227],[-84.0,73.04257274231419]]],[[[-93.0,75.0],[-93.46715564946689,75.0],[-93.53453528599994,75.04466380400004],[-93.64240475199995,75.03994375200006],[-93.49156653599994,75.07404205900008],[-93.51203365799995,75.09516022300005],[-93.46226966099994,75.13507721600007],[-93.58031165299991,75.20502350500004],[-93.49937903599994,75.26801178600005],[-93.80003821499992,75.30744049700007],[-93.6492406889999,75.32786692900004],[-93.67650305899991,75.36204661700003],[-93.98741614499994,75.43927643400008],[-94.0,75.44438303543573],[-94.0,76.0],[-93.0,76.0],[-92.5854792559281,76.0],[-92.41283118399991,75.92645905200004],[-92.12682044199994,75.87384674700007],[-92.10472571499992,75.81452057500007],[-92.17568925699993,75.75250885600008],[-92.01183020699995,75.66372304900005],[-92.07945716099994,75.62897370000007],[-92.00438391799992,75.60162995000007],[-92.19579016799992,75.55670807500007],[-92.38076738199993,75.45612213700008],[-92.46304277299993,75.37567780200004],[-92.32652747299994,75.37567780200004],[-92.42894446499992,75.34153880400004],[-92.47052975199995,75.29315827000005],[-92.45685787699995,75.25218333500004],[-92.50401770699995,75.21800364800004],[-92.28229732999995,75.14081452000005],[-92.05589758999992,75.15322500200006],[-92.11424719999991,75.13613515800006],[-92.01183020699995,75.10138580900008],[-92.23033606699994,75.07404205900008],[-92.20238196499992,75.06728750200006],[-92.22411048099991,75.03245677300004],[-92.06114661399994,74.96283600500004],[-92.07945716099994,74.93691640800006],[-92.01183020699995,74.90961334800005],[-92.0137426419999,74.85504791900007],[-92.06273352799991,74.80341217700004],[-91.80577551999994,74.73826732000003],[-91.88084876199991,74.71161530200004],[-91.66600501199991,74.72675202000005],[-91.62083899599992,74.71161530200004],[-91.68907630099994,74.68366120000007],[-91.51349850199995,74.64472077000005],[-91.3684789699999,74.64858633000006],[-91.33946692599994,74.68878815300008],[-91.37376868399991,74.70408763200004],[-91.33043372299994,74.72093333500004],[-91.29527747299994,74.70522695500006],[-91.28563391799992,74.63589101800005],[-91.09943600199995,74.62905508000006],[-91.23037675699993,74.73826732000003],[-91.09943600199995,74.75250885600008],[-90.78677324099993,74.88963450700004],[-90.75682532499991,74.88287995000007],[-90.75682532499991,74.83441803600005],[-91.0249731109999,74.70408763200004],[-90.90550696499992,74.68695709800005],[-90.84618079299992,74.72528717700004],[-90.72329667899993,74.73826732000003],[-90.76366126199991,74.71775950700004],[-90.73009192599994,74.66315338700008],[-90.5637914699999,74.60858795800004],[-90.31175696499992,74.62905508000006],[-90.37319902299993,74.60175202000005],[-90.11074785099993,74.55467357000003],[-90.00865637899994,74.59064362200007],[-89.91852779899995,74.52728913000004],[-89.43443762899994,74.55329010600008],[-89.38182532499991,74.58771393400008],[-89.14736894399994,74.60789622600004],[-89.0989477199999,74.68707916900007],[-89.27025305899991,74.75873444200005],[-89.06029212099992,74.72223541900007],[-89.01016191299993,74.78607819200005],[-89.0989477199999,74.84072500200006],[-89.0,74.81037862421472],[-89.0,74.0],[-90.0,74.0],[-90.94825769218512,74.0],[-90.99388587099992,74.00592682500007],[-91.57237708199995,74.03314850500004],[-91.8145238919999,74.02875397300005],[-92.04474758661125,74.0],[-92.28901342523343,74.0],[-92.43016516799992,74.06240469000005],[-92.64281165299991,74.10297272300005],[-92.74705969999991,74.08510976800005],[-92.79995683499993,74.13182200700004],[-93.0,74.15135269563073],[-93.0,75.0]]],[[[-78.0,77.4820099467504],[-77.94212805899991,77.51341380400004],[-77.97647050699993,77.56024811400005],[-77.71621660099993,77.60960521000004],[-77.91274980399993,77.67503489800004],[-78.0,77.67686190480232],[-78.0,77.69921239219732],[-77.98745683499993,77.70246002800008],[-78.0,77.70842317212482],[-78.0,77.7460804338739],[-77.94212805899991,77.76048411700003],[-77.98070227799991,77.81671784100007],[-78.0,77.82078153120672],[-78.0,77.96400048045663],[-77.88052324099993,77.94273509300007],[-77.15379798099991,77.94867584800005],[-76.88068600199995,77.90501536700003],[-76.53897050699993,77.94566478100006],[-76.4638972649999,77.99095286700003],[-76.39443823659931,78.0],[-76.13164404052982,78.0],[-75.93399003799993,77.95860423400006],[-75.83961423618123,78.0],[-75.0,78.0],[-75.0,78.55412403874844],[-74.6325984369999,78.58966705900008],[-74.8728328119999,78.64427317900004],[-74.83185787699995,78.65794505400004],[-74.86628170499995,78.67711009300007],[-74.84487870999993,78.69896067900004],[-74.7219539049999,78.71263255400004],[-74.83185787699995,78.74730052300004],[-74.7629695299999,78.76780833500004],[-74.78620357999995,78.78270091400003],[-74.9063207669999,78.78831614800004],[-74.7776179679999,78.80548737200007],[-74.77375240799995,78.83482493700006],[-75.0,78.84935668750786],[-75.0,79.0],[-74.0,79.0],[-73.0,79.0],[-73.0,78.164317905372],[-73.05724036399994,78.15827057500007],[-73.0,78.15674723115838],[-73.0,78.0],[-72.31801252257104,78.0],[-72.22801673099991,77.95966217700004],[-72.24168860599991,77.93854401200008],[-72.0,77.90266241513248],[-72.0,77.44464027241155],[-72.23424231699994,77.45872630400004],[-72.57681230399993,77.41160716400003],[-72.09752356699994,77.33901601800005],[-72.13182532499991,77.32160065300008],[-72.0,77.31968451440022],[-72.0,77.0],[-73.0,77.0],[-73.0,76.0],[-74.0,76.0],[-75.0,76.0],[-76.0,76.0],[-76.0,75.0],[-76.0,74.0],[-77.0,74.0],[-78.0,74.0],[-79.0,74.0],[-80.0,74.0],[-81.0,74.0],[-81.0,74.57583130549821],[-80.54185950399994,74.56354401200008],[-80.21751868399991,74.58746979400007],[-80.23180091099994,74.60175202000005],[-80.15623938699991,74.63686758000006],[-80.19701087099992,74.64264557500007],[-80.1765844389999,74.66315338700008],[-80.20474199099993,74.69733307500007],[-80.12877356699994,74.71775950700004],[-80.2454320949999,74.75873444200005],[-80.10081946499992,74.79352448100008],[-80.12254798099991,74.81395091400003],[-80.10081946499992,74.82762278900003],[-80.41055253799993,74.90180084800005],[-80.31314042899993,74.94155508000006],[-80.26203365799995,74.87938060100004],[-80.19017493399991,74.89594147300005],[-80.1966039699999,74.94342682500007],[-80.14586341099994,74.92023346600007],[-80.16673743399991,74.86334870000007],[-79.90904700399994,74.81395091400003],[-79.33429928299995,74.90338776200008],[-79.56017005099994,74.99152252800008],[-79.50499426999994,74.99896881700005],[-79.77993730399993,75.03245677300004],[-80.05931555899991,74.96092357000003],[-80.24913489499994,74.95351797100005],[-80.2761938139999,74.96857330900008],[-80.1765844389999,74.98529694200005],[-80.24838090522083,75.0],[-80.0,75.0],[-80.0,75.09368134354615],[-79.96865800699993,75.09747955900008],[-79.93553626199991,75.14126211100006],[-79.83364824099993,75.17316315300008],[-79.62848873599995,75.18024323100008],[-79.5169164699999,75.22923411700003],[-79.44351152299993,75.28701406500005],[-79.61485755099994,75.30369700700004],[-79.53258216099994,75.32733795800004],[-79.49132239499994,75.38251373900005],[-79.68309485599991,75.43773021000004],[-79.57384192599994,75.45148346600007],[-79.64981035099993,75.46979401200008],[-80.0,75.46751724938392],[-80.0,75.53140695843877],[-79.9500219389999,75.54022858300004],[-80.0,75.5429304988228],[-80.0,76.0],[-79.39016538968846,76.0],[-79.58348548099991,75.94814687700006],[-79.60118567599994,75.90326569200005],[-79.7520238919999,75.88279857000003],[-79.58690344999991,75.86155833500004],[-79.56639563699991,75.84495677300004],[-79.59373938699991,75.82135651200008],[-79.43814042899993,75.79535553600005],[-79.34044348899994,75.82880280200004],[-79.42983964799993,75.84808991100005],[-79.27916419199994,75.87653229400007],[-79.04662024599992,75.87616608300004],[-79.02521725199995,75.86981842700004],[-79.07359778599994,75.84808991100005],[-78.89647376199991,75.84259674700007],[-78.87498938699991,75.85553620000007],[-79.14806067599994,75.92495351800005],[-79.17601477799991,75.95795319200005],[-79.05139769145981,76.0],[-79.0,76.0],[-78.0,76.0],[-78.0,76.63722309143286],[-77.7707820299999,76.66429271000004],[-77.8127742179999,76.68809642100007],[-77.7663874989999,76.72789134300007],[-77.78978430899991,76.77631256700005],[-77.71621660099993,76.82196686400005],[-77.89492753799993,76.86912669500003],[-77.8335261709999,76.89085521000004],[-77.9023738269999,76.91819896000004],[-77.88923092399995,76.94977448100008],[-78.0,76.98990172451585],[-78.0,77.0],[-78.0,77.4820099467504]],[[-77.59658769399994,77.81659577000005],[-77.57274329299992,77.85663483300004],[-77.95628821499992,77.83612702000005],[-77.85260982999995,77.77924225500004],[-77.59658769399994,77.81659577000005]],[[-74.33112545499995,78.67841217700004],[-74.16706295499995,78.72679271000004],[-74.31558183499993,78.75629303600005],[-74.64305579299992,78.77830638200004],[-74.70360266799992,78.72687409100007],[-74.33112545499995,78.67841217700004]]],[[[-86.0,76.0],[-86.0,75.53138378923825],[-86.1516820949999,75.50877513200004],[-86.0,75.48330531920968],[-86.0,75.4215751095088],[-86.61803137899994,75.36888255400004],[-86.36481686099995,75.43036530200004],[-86.57990475199995,75.47760651200008],[-86.77782141799992,75.47601959800005],[-87.0,75.54296407472388],[-87.0,76.0],[-86.0,76.0]]],[[[-91.0,78.0],[-91.0,77.64112964146878],[-91.16869055899991,77.61749909100007],[-91.20929928299995,77.57538483300004],[-91.18199622299994,77.54071686400005],[-91.20929928299995,77.52020905200004],[-91.16832434799994,77.45254140800006],[-91.20205644399994,77.41966380400004],[-91.17951412699995,77.39419179900005],[-91.0,77.33284539514607],[-91.0,77.0],[-92.0,77.0],[-93.0,77.0],[-93.0,78.0],[-92.0,78.0],[-91.0,78.0]]],[[[-88.0,77.82680208410794],[-88.04222571499992,77.82273997600004],[-88.2219539049999,77.86286041900007],[-88.1052546869999,77.81504954600007],[-88.23501542899993,77.77411530200004],[-88.15330969999991,77.74237702000005],[-88.21149654899995,77.65033600500004],[-88.0,77.60497440824514],[-88.0,77.1281615721075],[-88.49461829299992,77.11412181200006],[-88.54409745999993,77.10252513200004],[-88.39321855399993,77.10252513200004],[-88.8704356999667,77.0],[-89.0,77.0],[-90.0,77.0],[-90.0,77.22472920810374],[-89.79088294199994,77.27069733300004],[-89.65713456899994,77.32416413000004],[-89.66128495999993,77.35635000200006],[-89.71593176999994,77.37002187700006],[-89.69481360599991,77.39044830900008],[-89.71593176999994,77.45872630400004],[-89.77574622299994,77.48639557500007],[-90.0,77.54708311997952],[-90.0,78.0],[-89.0,78.0],[-88.0,78.0],[-88.0,77.82680208410794]]],[[[-93.0,78.0],[-94.0,78.0],[-95.0,78.0],[-95.00824559769971,78.0],[-94.88931230399993,78.06207916900007],[-94.92418372299994,78.08673737200007],[-94.88931230399993,78.10927969000005],[-95.10903886599993,78.19236888200004],[-95.40322831899994,78.23334381700005],[-94.82787024599992,78.36371491100005],[-95.1187231109999,78.45465729400007],[-95.46108964799993,78.51113515800006],[-95.69981848899994,78.52610911700003],[-95.90697180899991,78.48725006700005],[-96.0,78.49938462804643],[-96.0,79.0],[-95.0,79.0],[-94.16528698839183,79.0],[-94.29352779899995,78.98688385600008],[-93.8745824859999,78.83397044500003],[-93.5469457669999,78.83856842700004],[-93.03844153599994,78.76776764500005],[-93.16258704299992,78.73989492400005],[-93.56615149599992,78.78628164300005],[-93.81309973899994,78.76776764500005],[-93.53937740799995,78.67841217700004],[-93.37368730399993,78.68829987200007],[-93.34752356699994,78.67841217700004],[-93.47175045499995,78.65176015800006],[-93.28172766799992,78.59471263200004],[-93.0,78.62069201728602],[-93.0,78.0]]],[[[-66.0,80.0],[-65.05157055704231,80.0],[-65.0,79.9798032303583],[-65.0,79.92827813160129],[-65.04662024599992,79.89866771000004],[-65.0,79.86575930088901],[-65.0,79.86429184916703],[-65.12857011599993,79.85028717700004],[-65.0,79.83006266376141],[-65.0,79.82957418939968],[-65.05284583199995,79.82355377800008],[-65.0,79.80388338478278],[-65.0,79.76477086909703],[-65.03233801999994,79.75462474200003],[-65.0,79.7421370453218],[-65.0,79.66409385051736],[-65.01187089799993,79.65851471600007],[-65.0,79.65540364630594],[-65.0,79.47860199259004],[-65.05134029899995,79.46381256700005],[-65.08698482999995,79.44000885600008],[-65.04662024599992,79.43256256700005],[-65.12677975199995,79.41347890800006],[-65.15355383999992,79.37641022300005],[-65.42808997299994,79.33368561400005],[-65.55247962099992,79.28851959800005],[-65.51895097599993,79.26740143400008],[-65.66950436099995,79.25324127800008],[-65.71019446499992,79.24070872600004],[-65.66234290299991,79.22028229400007],[-65.90941321499992,79.15131256700005],[-65.78587805899991,79.13833242400005],[-66.07323157499991,79.13084544500003],[-65.97765051999994,79.10358307500007],[-66.11709550699993,79.10276927300004],[-66.31680253799993,79.10529205900008],[-66.36310787699995,79.14325592700004],[-66.82062740799995,79.11786530200004],[-66.74547278599994,79.14516836100006],[-66.93040930899991,79.10358307500007],[-66.90998287699995,79.13084544500003],[-66.96165930899991,79.15412018400008],[-67.04010982999995,79.11570872600004],[-67.11270097599993,79.15643952000005],[-67.18285071499992,79.15786367400005],[-67.21841386599993,79.13833242400005],[-67.17747962099992,79.11786530200004],[-67.22691809799994,79.11517975500004],[-67.50584876199991,79.13833242400005],[-67.47598222599993,79.10651276200008],[-67.7122289699999,79.09438711100006],[-67.74600175699993,79.07684967700004],[-67.67027747299994,79.05516185100004],[-67.75865637899994,79.03827545800004],[-68.04019120999993,79.07684967700004],[-68.82910369765817,79.0],[-69.0,79.0],[-70.0,79.0],[-71.0,79.0],[-72.0,79.0],[-73.0,79.0],[-73.0,79.760970705821],[-72.9201960929999,79.70958079600007],[-72.23167883999992,79.66258372600004],[-71.14240475199995,79.78949616100005],[-70.91161048099991,79.89256419500003],[-71.17853756399995,79.91636790600006],[-71.45962480399993,79.89874909100007],[-71.3760066399999,79.94232819200005],[-70.7053523429999,79.99156321800007],[-70.6932786524487,80.0],[-70.0,80.0],[-69.0,80.0],[-68.0,80.0],[-67.0,80.0],[-66.0,80.0]]],[[[-73.0,79.82349578924065],[-72.9309789699999,79.82359446800007],[-72.90583248599995,79.81614817900004],[-73.0,79.80761842518379],[-73.0,79.82349578924065]]]]}},{"type":"Feature","properties":{"role":"spread","scenario":"ssp126","month":"october","start_year":2041,"end_year":2060,"threshold_percent":15},"geometry":{"type":"MultiPolygon","coordinates":[[[[-150.0,72.0],[-150.0,73.0],[-150.0,80.0],[-136.0,80.0],[-136.0,79.0],[-135.0,79.0],[-134.0,79.0],[-133.0,79.0],[-132.0,79.0],[-131.0,79.0],[-131.0,78.0],[-130.0,78.0],[-129.0,78.0],[-128.0,78.0],[-128.0,77.0],[-127.0,77.0],[-126.0,77.0],[-125.0,77.0],[-124.0,77.0],[-123.0,77.0],[-122.0,77.0],[-122.0,76.42411816477028],[-122.40322831899994,76.40420156500005],[-122.6172582669999,76.34320709800005],[-122.64964758999992,76.30052317900004],[-122.63438880099994,76.27260976800005],[-122.71108964799993,76.23163483300004],[-122.74697831899994,76.23016998900005],[-122.83165442599994,76.23729075700004],[-122.86172441299993,76.18235911700003],[-122.92467200399994,76.18895091400003],[-122.94448808499993,76.17767975500004],[-122.91030839799993,76.15717194200005],[-123.04067949099993,76.08828359600005],[-122.92540442599994,76.09707265800006],[-122.82835852799991,76.15428294500003],[-122.60582434799994,76.17426178600005],[-122.49258378799993,76.14350006700005],[-122.70490475199995,76.11562734600005],[-122.48298092399995,76.10236237200007],[-122.52611243399991,76.06159088700008],[-122.6980688139999,76.02065664300005],[-122.56029212099992,76.02680084800005],[-122.5979711579999,76.00336334800005],[-122.73155676999994,75.97842031500005],[-122.42589270699995,75.93280670800004],[-122.13573157499991,75.97842031500005],[-122.1499731109999,76.03363678600005],[-122.12547766799992,76.04120514500005],[-122.0,76.04302073858142],[-122.0,76.0],[-121.57056405603564,76.0],[-121.49486243399991,75.98761627800008],[-121.29967200399994,75.91079336100006],[-121.25869706899994,75.96539948100008],[-121.11839074987455,76.0],[-121.02425338699011,76.0],[-120.98436438699991,75.98582591400003],[-121.01414954299992,75.95038483300004],[-120.95348059799994,75.95819733300004],[-120.96445671719681,76.0],[-120.65572919224422,76.0],[-120.59618079299992,75.98688385600008],[-120.53379503125421,76.0],[-120.43937340842454,76.0],[-120.44985917899993,75.98212311400005],[-120.38849850199995,75.97223541900007],[-120.45368404899995,75.93402741100005],[-120.48900305899991,75.84707265800006],[-120.38744055899991,75.80670807500007],[-120.25967363199993,75.83274974200003],[-120.16087805899991,75.89834219000005],[-120.04434160099993,75.84267812700006],[-119.86294511599993,75.85911692900004],[-119.70201575399994,75.92177969000005],[-119.6070043609999,75.91693756700005],[-119.70323645699995,75.94428131700005],[-119.63532467399995,75.99555084800005],[-119.48595130099994,75.97492096600007],[-119.48827465449371,76.0],[-119.0,76.0],[-118.13609125667655,76.0],[-118.17446855399993,75.97223541900007],[-118.62120520699995,75.92206452000005],[-118.99205481699994,75.76154205900008],[-119.3321020169999,75.66079336100006],[-119.40904700399994,75.60162995000007],[-118.61392167899993,75.50372955900008],[-118.20238196499992,75.60162995000007],[-118.27065995999993,75.61591217700004],[-118.0,75.71181608852211],[-118.0,75.0],[-117.0,75.0],[-116.0,75.0],[-115.89340882336211,75.0],[-115.71544348899994,74.97036367400005],[-115.58433997299994,74.99542877800008],[-115.5794971518634,75.0],[-115.18654749737794,75.0],[-115.05768795499989,74.96674225500004],[-114.85495879763184,75.0],[-114.0,75.0],[-114.0,74.80016327553429],[-114.43980872299994,74.68366120000007],[-114.39232337099992,74.63930898600006],[-114.17349199099993,74.56696198100008],[-114.0,74.5227368039506],[-114.0,74.0],[-113.0,74.0],[-112.0,74.0],[-111.0,74.0],[-111.0,74.61661518563642],[-110.58901933499993,74.72528717700004],[-110.66612708199995,74.79132721600007],[-110.34398352799991,74.79657623900005],[-110.31468665299991,74.80719635600008],[-110.41087805899991,74.82762278900003],[-110.30785071499992,74.85219961100006],[-110.06981360599991,74.82363515800006],[-109.88385982999995,74.87055084800005],[-109.53233801999994,74.86701080900008],[-109.38988196499992,74.90338776200008],[-109.41030839799993,74.90961334800005],[-109.35716712099992,74.94672272300005],[-108.9786122594773,75.0],[-108.54246783301582,75.0],[-108.51219641799992,74.97846100500004],[-108.80703691299993,74.98529694200005],[-108.41661536399994,74.91705963700008],[-107.94424394399994,74.93691640800006],[-108.01878821499992,74.95058828300006],[-107.94713294199994,74.97211334800005],[-107.97762346764327,75.0],[-107.7031267922101,75.0],[-107.68626868399991,74.98224518400008],[-107.23102779899995,74.92011139500005],[-107.0051977199999,74.92381419500003],[-106.76951501185692,75.0],[-106.0,75.0],[-106.0,75.12936085136727],[-105.83950761599993,75.18329498900005],[-105.93944251199991,75.21466705900008],[-105.88451087099992,75.26650625200006],[-105.66136633999992,75.35521067900004],[-105.7090551419999,75.41974518400008],[-105.59312903599994,75.46507396000004],[-105.7508031889999,75.49237702000005],[-105.49364173099991,75.56549713700008],[-105.46336829299992,75.61591217700004],[-105.39513098899994,75.64325592700004],[-105.46336829299992,75.73261139500005],[-105.42243404899995,75.74567291900007],[-105.46654212099992,75.85773346600007],[-105.60680091099994,75.93744538000004],[-105.75991777299993,75.99017975500004],[-105.83966599704036,76.0],[-105.0,76.0],[-104.0,76.0],[-104.0,75.40653780959761],[-104.1309301419999,75.43561432500007],[-104.40322831899994,75.43260325700004],[-104.70225989499994,75.33315664300005],[-104.77065995999993,75.27952708500004],[-104.6887914699999,75.26650625200006],[-104.92955481699994,75.14109935100004],[-104.59585527299993,75.04946523600006],[-104.22948157499991,75.01886627800008],[-104.0,75.05415267093154],[-104.0,75.0],[-103.0,75.0],[-102.0,75.0],[-102.0,75.56861090339122],[-102.40029863199993,75.54022858300004],[-101.44937089799993,75.60765208500004],[-101.36115475199995,75.57831452000005],[-101.0,75.60636487322783],[-101.0,75.0],[-100.01386837055502,75.0],[-99.64541581899994,74.97601959800005],[-99.42593339799993,74.99152252800008],[-99.44148947471113,75.0],[-99.40434844280276,75.0],[-99.40550696499992,74.99896881700005],[-99.35882173530547,75.0],[-99.0,75.0],[-98.78595071708793,75.0],[-98.7891332669999,74.99896881700005],[-98.75023352799991,74.98843008000006],[-98.40617303618366,75.0],[-98.0,75.0],[-98.0,75.01365861424533],[-97.97581946499992,75.01447174700007],[-97.94432532499991,75.05255768400008],[-97.97325598899994,75.11196523600006],[-98.0,75.12073095454487],[-98.0,75.15649045169373],[-97.81285559799994,75.11310455900008],[-97.56883704299992,75.14980703300006],[-97.80223548099991,75.19757721600007],[-97.73330644399994,75.21124909100007],[-97.8977758449999,75.30548737200007],[-97.91148841099994,75.26650625200006],[-98.0,75.27940411538468],[-98.0,75.27989839176279],[-97.89098059799994,75.32786692900004],[-97.93053137899994,75.33954498900005],[-98.0,75.31063319311951],[-98.0,75.37152129487693],[-97.87999426999994,75.37433502800008],[-98.0,75.39321564420239],[-98.0,75.41668026985063],[-97.77428137899994,75.42413971600007],[-98.0,75.44705493318345],[-98.0,75.46489607709852],[-97.94562740799995,75.47134023600006],[-98.0,75.47902231977909],[-98.0,75.49720411367464],[-97.92369544199994,75.51959870000007],[-97.77383378799993,75.46015045800004],[-97.74742591099994,75.47540924700007],[-97.76121985599991,75.50006745000007],[-97.8562719389999,75.54767487200007],[-97.72423255099994,75.57221100500004],[-97.47948157499991,75.49237702000005],[-97.49876868399991,75.45453522300005],[-97.47227942599994,75.42450592700004],[-97.28087317599994,75.40302155200004],[-97.37340247299994,75.44163646000004],[-97.42487545499995,75.51972077000005],[-97.37751217399995,75.67983633000006],[-97.93936113199993,75.74567291900007],[-97.66763261599993,75.80243561400005],[-97.57022050699993,75.86522044500003],[-97.65453040299991,75.98212311400005],[-97.64249017411605,76.0],[-97.0,76.0],[-97.0,75.50707584621898],[-97.05492102799991,75.49921295800004],[-97.0,75.4558870622775],[-97.0,75.0],[-96.61429530179262,75.0],[-96.61611894399994,74.99152252800008],[-96.42346155224948,75.0],[-96.3298148736227,75.0],[-96.33169511599993,74.97825755400004],[-96.39761308499993,74.98529694200005],[-96.40379798099991,74.93691640800006],[-96.26667232999995,74.90961334800005],[-96.20579993399991,74.93065013200004],[-96.16236030310287,75.0],[-96.09284448938834,75.0],[-96.14313717399995,74.95799388200004],[-96.05455481699994,74.97272370000007],[-96.0332738919999,74.95058828300006],[-96.13687089799993,74.93691640800006],[-95.87002519399994,74.85496653900003],[-95.92467200399994,74.83441803600005],[-95.89757239499994,74.82587311400005],[-95.7390844389999,74.82078685100004],[-95.71890214799993,74.84658437700006],[-95.67642167899993,74.81891510600008],[-95.51488196499992,74.81411367400005],[-95.49205481699994,74.79975006700005],[-95.54662024599992,74.77301666900007],[-95.51134192599994,74.74359772300005],[-95.45173092399995,74.74510325700004],[-95.48021399599992,74.78131745000007],[-95.46043860599991,74.80426666900007],[-95.38280188699991,74.80719635600008],[-95.46471106699994,74.77985260600008],[-95.44245357999995,74.77293528900003],[-95.30540930899991,74.80548737200007],[-95.05382239499994,74.73143138200004],[-95.08861243399991,74.69049713700008],[-95.06696529899995,74.68207428600005],[-95.0,74.6736732866461],[-95.0,74.03988095912707],[-95.24864661399994,74.00991445500006],[-95.26629211579052,74.0],[-96.0,74.0],[-96.0,73.0],[-96.63547252398288,73.0],[-96.56826738199993,73.05247630400004],[-96.65086829299992,73.14183177300004],[-96.75942949099993,73.11456940300008],[-96.72598222599993,73.16233958500004],[-96.80919348899994,73.19208405200004],[-97.0,73.15291244053212],[-97.0,73.62428633631448],[-96.99473161799995,73.62592194200005],[-96.93821306299992,73.68683502800008],[-96.95640153999994,73.73729075700004],[-97.0,73.75753503509326],[-97.0,74.0],[-97.76978259770276,74.0],[-97.64321855399993,74.07221100500004],[-97.72524980399993,74.12164948100008],[-98.17300370999993,74.09772370000007],[-98.95030161027489,74.0],[-99.0,74.0],[-100.0,74.0],[-101.0,74.0],[-101.0,73.80362817607102],[-101.0049448339999,73.80239492400005],[-101.02919613599994,73.77871328300006],[-101.0,73.77493320393818],[-101.0,73.76596408766349],[-101.11855160499994,73.72406647300005],[-101.0161753029999,73.71723053600005],[-101.0479135839999,73.68256256700005],[-101.0,73.67910499148843],[-101.0,73.60380309447649],[-101.22983903999994,73.60614655200004],[-101.26938982099995,73.56004466400003],[-101.43715511999994,73.55341217700004],[-101.53159685199995,73.49555084800005],[-101.62563168299994,73.49135976800005],[-101.56321306299992,73.44953034100007],[-101.31484066699994,73.40045807500007],[-101.28896176099994,73.36005280200004],[-101.02919613599994,73.32623932500007],[-101.03159685199995,73.30243561400005],[-101.0,73.29523398910766],[-101.0,73.0],[-101.77766770961267,73.0],[-101.76283871399994,73.01898834800005],[-101.9813038829999,73.06610748900005],[-101.9478159279999,73.09345123900005],[-102.28293962499993,73.08722565300008],[-102.48476254199994,73.04124583500004],[-102.56785173499992,72.99477773600006],[-102.60203142199992,72.91217682500007],[-102.7559620859999,72.81232330900008],[-102.75034685199995,72.76390208500004],[-102.71498715199994,72.75202057500007],[-102.7422902109999,72.73037344000005],[-102.61423845399992,72.66132233300004],[-102.39280290699992,72.57953522300005],[-102.0,72.49990171436403],[-102.0,72.0],[-101.0,72.0],[-100.32969723164726,72.0],[-100.11863298499992,71.89423248900005],[-100.0,71.87800089963092],[-100.0,71.0],[-101.0,71.0],[-101.0,70.1674084502183],[-101.0222875639999,70.18622467700004],[-101.12604732999995,70.19546133000006],[-101.14317786399994,70.16038646000004],[-101.23940995999993,70.13800690300008],[-101.37425696499992,70.17690664300005],[-101.40074622299994,70.13434479400007],[-101.52944902299993,70.11286041900007],[-101.64745032499991,70.20441315300008],[-101.59496008999992,70.27732982000003],[-101.79027258999992,70.30556875200006],[-101.85244706899994,70.26170482000003],[-101.92015540299991,70.26373932500007],[-102.0,70.29524199185394],[-102.0,71.0],[-103.0,71.0],[-104.0,71.0],[-104.0,72.0],[-104.88519976485142,72.0],[-104.88565019399994,72.00088125200006],[-104.94884192599994,72.05878327000005],[-105.0,72.06837712739048],[-105.0,72.13863510416128],[-104.96251380099994,72.16242096600007],[-104.96629798099991,72.19354889500005],[-105.0,72.2197179501873],[-105.0,73.0],[-105.0,73.0238641438911],[-104.98131262899994,73.03571198100008],[-104.99038652299993,73.07977936400005],[-104.76183020699995,73.17300039300005],[-104.73656165299991,73.18964264500005],[-104.74982662699995,73.21747467700004],[-104.57266191299993,73.33218008000006],[-104.58633378799993,73.38519928600005],[-104.55162512899994,73.42645905200004],[-104.57949785099993,73.44969310100004],[-104.4895727199999,73.53229401200008],[-104.50084387899994,73.56720612200007],[-104.68089758999992,73.62982819200005],[-104.82457434799994,73.63816966400003],[-105.0,73.70557206877189],[-105.0,74.0],[-106.0,74.0],[-107.0,74.0],[-108.0,74.0],[-108.0,73.60632488713958],[-108.08763587099992,73.59064362200007],[-108.0,73.54941440849052],[-108.0,73.34885771986688],[-108.08763587099992,73.35415273600006],[-108.01317298099991,73.31317780200004],[-108.1565649079999,73.30634186400005],[-108.1187231109999,73.26878489800004],[-108.0,73.23132278701262],[-108.0,73.19697096408518],[-108.16494706899994,73.20612213700008],[-108.29832923099991,73.13377513200004],[-108.1565649079999,73.05247630400004],[-108.2346899079999,73.04291413000004],[-108.16187412639961,73.0],[-109.0,73.0],[-110.0,73.0],[-110.57490611253479,73.0],[-110.73570716099994,73.00136953300006],[-110.73607911368511,73.0],[-111.0,73.0],[-112.0,73.0],[-112.91132084151029,73.0],[-113.01500403599994,73.01601797100005],[-113.14019108225293,73.0],[-114.0,73.0],[-114.04164811305026,73.0],[-113.95836341099994,73.14012278900003],[-114.02269446499992,73.21185944200005],[-114.26512610599991,73.33567942900004],[-114.5842992829999,73.38458893400008],[-115.0,73.30753807274473],[-115.0,74.0],[-116.0,74.0],[-116.63582960176636,74.0],[-116.86701412699995,74.08755117400005],[-117.41649329299992,74.23248932500007],[-118.0659887359999,74.28070709800005],[-118.7254125639999,74.22077057500007],[-118.88316809799994,74.17869700700004],[-118.79552161399994,74.12759023600006],[-118.80508378799993,74.10138580900008],[-118.95189368399991,74.01756419500003],[-119.116135796029,74.0],[-119.18417169682964,74.0],[-119.13963782499991,74.06769440300008],[-119.06924394399994,74.09052155200004],[-119.07677161399994,74.11994049700007],[-119.13467363199993,74.12872955900008],[-119.0979711579999,74.16429271000004],[-119.14435787699995,74.20905182500007],[-119.47988847599993,74.22614166900007],[-119.62120520699995,74.13434479400007],[-119.74693762899994,74.09731679900005],[-119.73013261599993,74.04645416900007],[-119.76524817599994,74.03534577000005],[-119.82201087099992,74.05540599200003],[-119.81798255099994,74.10431549700007],[-119.68504798099991,74.16571686400005],[-119.64745032499991,74.19521719000005],[-119.66222083199995,74.22500234600005],[-119.51829993399991,74.23114655200004],[-119.85952714799993,74.23651764500005],[-120.1565649079999,74.27899811400005],[-120.97752844999991,74.42357005400004],[-121.01158606699994,74.47040436400005],[-121.1323949859999,74.50995514500005],[-121.58079993399991,74.55585358300004],[-122.62319902299993,74.46308014500005],[-123.3035375639999,74.44940827000005],[-124.75568600199989,74.34857819200005],[-124.78726152299993,74.33421458500004],[-124.60293535099993,74.31370677300004],[-124.69391842399995,74.27570221600007],[-124.54564368399991,74.26512278900003],[-124.43907630099994,74.13556549700007],[-124.46580969999991,74.07416413000004],[-124.38385982999989,74.03937409100007],[-124.36333442281392,74.0],[-125.0,74.0],[-125.0,73.0],[-125.0,72.86020287222054],[-125.11343339799993,72.86749909100007],[-125.02749589799993,72.82656484600005],[-125.0,72.79150207743882],[-125.0,72.7305635735645],[-125.02065995999993,72.70302969000005],[-125.0,72.70302969000005],[-125.0,72.67934362285598],[-125.10260982999989,72.63471100500004],[-125.0,72.6142563039129],[-125.0,72.5678759439687],[-125.06065833199995,72.56561920800004],[-125.29918372299994,72.48908112200007],[-125.36314856699994,72.43886953300006],[-125.34284420499989,72.42251211100006],[-125.43838456899994,72.41567617400005],[-125.39061438699991,72.40200429900005],[-125.52037512899994,72.32290273600006],[-125.53237870999993,72.29840729400007],[-125.48737545499989,72.31024811400005],[-125.4905492829999,72.27789948100008],[-125.6792699859999,72.23065827000005],[-125.65664628799993,72.19375234600005],[-125.56940670499989,72.17544179900005],[-125.75206458199995,72.14769114800004],[-125.79527747299994,72.11395905200004],[-125.72020423099991,72.09349192900004],[-125.74156653599994,72.02484772300005],[-125.79711241639139,72.0],[-126.0,72.0],[-127.0,72.0],[-128.0,72.0],[-129.0,72.0],[-130.0,72.0],[-131.0,72.0],[-132.0,72.0],[-133.0,72.0],[-134.0,72.0],[-135.0,72.0],[-136.0,72.0],[-137.0,72.0],[-138.0,72.0],[-139.0,72.0],[-140.0,72.0],[-141.0,72.0],[-142.0,72.0],[-143.0,72.0],[-144.0,72.0],[-145.0,72.0],[-146.0,72.0],[-147.0,72.0],[-148.0,72.0],[-149.0,72.0],[-150.0,72.0]],[[-120.99111894399994,75.76300690300008],[-120.9024145169999,75.82510000200006],[-120.86827551999994,75.91693756700005],[-120.99795488199993,75.93060944200005],[-121.04369055899991,75.90827057500007],[-120.99795488199993,75.86981842700004],[-121.02261308499993,75.82347239800004],[-121.29344641799992,75.75995514500005],[-121.0921117829999,75.73411692900004],[-120.99111894399994,75.76300690300008]],[[-97.50304114499994,74.62303294500003],[-97.79478919199994,74.49188873900005],[-97.63621985599991,74.45994700700004],[-97.37706458199995,74.51235586100006],[-97.26036536399994,74.59796784100007],[-97.50304114499994,74.62303294500003]],[[-95.34959876199991,74.49591705900008],[-95.25560462099992,74.51878489800004],[-95.36229407499991,74.59080638200004],[-95.56322180899991,74.64288971600007],[-95.7122289699999,74.63202545800004],[-95.75210527299993,74.61448802300004],[-95.73281816299993,74.58746979400007],[-95.87002519399994,74.58124420800004],[-95.7176000639999,74.53253815300008],[-95.34959876199991,74.49591705900008]]],[[[-101.98131262899994,75.95172760600008],[-102.0,75.95500563481839],[-102.0,76.0],[-101.74693511585579,76.0],[-101.70995032499991,75.98969147300005],[-101.57465260437081,76.0],[-101.36496550754289,76.0],[-101.58946692599994,75.92450592700004],[-101.55060787699995,75.86981842700004],[-101.37181555899991,75.85179271000004],[-101.3274633449999,75.81793854400007],[-101.35875403599994,75.77973053600005],[-101.0,75.80774027940637],[-101.0,75.79803282199944],[-101.27578691299993,75.74567291900007],[-101.44591223899994,75.76410553600005],[-101.47484290299991,75.77358633000006],[-101.4544164699999,75.81452057500007],[-101.83299719999991,75.90582916900007],[-102.26227779899995,75.86981842700004],[-102.0,75.8918199294535],[-102.0,75.94891264691339],[-102.38866126199991,75.89036692900004],[-101.98131262899994,75.95172760600008]]],[[[-109.31729236695173,68.0],[-109.31680253799993,68.02993398600006],[-109.48387610599991,68.09931061400005],[-109.50658118399991,68.08510976800005],[-109.47179114499994,68.05036041900007],[-109.54751542899993,68.05719635600008],[-109.36487486055528,68.0],[-110.0,68.0],[-110.0,68.07701179938687],[-109.91392981699994,68.08832428600005],[-109.87584387899994,68.13226959800005],[-110.0,68.10334768865319],[-110.0,68.63309691767085],[-109.62462317599994,68.64166901200008],[-109.02855383999992,68.72675202000005],[-109.0,68.7359392562321],[-109.0,68.0],[-109.31729236695173,68.0]],[[-109.85602779899995,68.15961334800005],[-109.78197180899991,68.14264557500007],[-109.56798255099994,68.24957916900007],[-109.64317786399994,68.24262116100005],[-109.85602779899995,68.15961334800005]]],[[[-113.57188880099994,68.96515534100007],[-113.67210852799991,68.90989817900004],[-113.6192113919999,68.84540436400005],[-113.66812089799993,68.81537506700005],[-113.45201575399994,68.70160553600005],[-113.44391842399995,68.64655182500007],[-113.35049394399994,68.59153880400004],[-113.10342363199993,68.53701406500005],[-113.0391332669999,68.49494049700007],[-113.29808508999992,68.49103424700007],[-113.24400794199994,68.45441315300008],[-113.0,68.45868554844118],[-113.0,68.0],[-114.0,68.0],[-114.0,68.34005280179122],[-113.90538489499994,68.39980703300006],[-113.96715247299994,68.44082265800006],[-114.0,68.40522017724018],[-114.0,69.0],[-113.57098915944056,69.0],[-113.57188880099994,68.96515534100007]],[[-113.96743730399993,68.61212799700007],[-113.79576575399994,68.58173248900005],[-113.7620336579999,68.59780508000006],[-113.8352758449999,68.61444733300004],[-113.96743730399993,68.61212799700007]]],[[[-101.0,68.0],[-102.0,68.0],[-103.0,68.0],[-103.0,68.80629750529678],[-102.96589107999995,68.79865143400008],[-102.71401933499993,68.83974844000005],[-102.74913489499994,68.89948151200008],[-102.52306067599994,68.86554596600007],[-102.39565995999993,68.91693756700005],[-102.40713456899994,68.95473867400005],[-102.16734778599994,68.95302969000005],[-102.06421151547532,69.0],[-102.04871354867683,69.0],[-101.96450761599993,68.96963125200006],[-101.84679114499994,68.98834870000007],[-101.82367390676548,69.0],[-101.0,69.0],[-100.62258401971857,69.0],[-100.63133704299992,68.99567291900007],[-100.57974199099993,68.94798411700003],[-100.63036048099991,68.87470123900005],[-100.60334225199995,68.75556061400005],[-100.47118079299992,68.79975006700005],[-100.44701087099992,68.77655670800004],[-100.49478105399993,68.76288483300004],[-100.39240475199995,68.71507396000004],[-100.31041419199994,68.77033112200007],[-100.22105872299994,68.77033112200007],[-100.17756100199995,68.80337148600006],[-100.20677649599992,68.85228099200003],[-100.1712133449999,68.86481354400007],[-100.18008378799993,68.89325592700004],[-100.12486731699994,68.90692780200004],[-100.30915279899995,68.96588776200008],[-100.3222757574648,69.0],[-100.2128496011333,69.0],[-100.19762122299994,68.98191966400003],[-100.02183997299994,68.94037506700005],[-99.98631751199991,69.02960846600007],[-100.0,69.0401711564526],[-100.0,70.0],[-100.0,71.0],[-99.0,71.0],[-98.0,71.0],[-98.0,71.65753607951095],[-97.76381527699994,71.64590078300006],[-97.68528337499993,71.61839427300004],[-97.4612436619999,71.61737702000005],[-97.21189470399992,71.66648997600004],[-97.0828663829999,71.70311107000003],[-96.96156918299994,71.80683014500005],[-96.8294077239999,71.81313711100006],[-96.73964535499994,71.85236237200007],[-96.6775522559999,71.83966705900008],[-96.7383839609999,71.82855866100005],[-96.73765153999994,71.79905833500004],[-96.58876644799994,71.82074616100005],[-96.50132341499994,71.93146393400008],[-96.76694841499994,71.92226797100005],[-96.62632341499994,71.96320221600007],[-96.54075212499993,71.95453522300005],[-96.51134854905375,72.0],[-96.0,72.0],[-96.0,71.40770050121901],[-96.13353430899991,71.41417064000007],[-96.30553137899994,71.30329010600008],[-96.50690670499995,71.27789948100008],[-96.43114173099991,71.26426829600007],[-96.45909583199995,71.19537995000007],[-96.37588456899994,71.16058991100005],[-96.45872962099992,71.17145416900007],[-96.56151282499991,71.12706126500007],[-96.45872962099992,71.08612702000005],[-96.41063391799992,71.11969635600008],[-96.37604732999995,71.09410228100006],[-96.49998938699991,71.04515208500004],[-96.5110788038369,71.0],[-97.0,71.0],[-97.0,70.0],[-98.0,70.0],[-99.0,70.0],[-99.0,69.14221892788764],[-99.00670325399994,69.13906484600005],[-99.29295813699991,69.16111888200004],[-99.46129309799994,69.13458893400008],[-99.59727942599994,69.02667877800008],[-99.46304277299993,68.95107656500005],[-99.44115149599992,68.89935944200005],[-99.19225012899994,68.82977936400005],[-99.04234778599994,68.86591217700004],[-99.12661699099993,68.92064036700003],[-99.01878821499992,68.90924713700008],[-99.0,68.92675149085008],[-99.0,68.06696278069882],[-99.08336341099994,68.05719635600008],[-99.02063529024743,68.0],[-100.0,68.0],[-101.0,68.0]],[[-100.09068762899994,68.37250397300005],[-100.23403886599993,68.32404205900008],[-100.12096106699994,68.27863190300008],[-100.09068762899994,68.29059479400007],[-100.09068762899994,68.37250397300005]],[[-101.79898027299993,68.62738678600005],[-101.82494055899991,68.65302155200004],[-101.69399980399993,68.65387604400007],[-101.69395911399994,68.77033112200007],[-102.02464758999992,68.82379791900007],[-102.06460527299993,68.76430898600006],[-102.35191809799994,68.68720123900005],[-101.84479732999995,68.57111237200007],[-101.79898027299993,68.62738678600005]]],[[[-93.0,72.76625900532764],[-92.38487708199995,72.70990631700005],[-92.09581458199995,72.74624258000006],[-91.85765540299991,72.84796784100007],[-91.65165443965421,73.0],[-91.0,73.0],[-91.0,73.45357344216474],[-90.92125403599994,73.49811432500007],[-90.98338782499991,73.55955638200004],[-90.78636633999992,73.55683014500005],[-90.37319902299993,73.79238515800006],[-90.37889563699991,73.85838450700004],[-90.32542883999992,73.87547435100004],[-90.26414954299992,73.84479401200008],[-90.19570878799993,73.90224844000005],[-90.99388587099992,74.00592682500007],[-91.57237708199995,74.03314850500004],[-91.8145238919999,74.02875397300005],[-92.04474758661125,74.0],[-92.28901342523343,74.0],[-92.43016516799992,74.06240469000005],[-92.64281165299991,74.10297272300005],[-92.74705969999991,74.08510976800005],[-92.79995683499993,74.13182200700004],[-93.0,74.15135269563073],[-93.0,75.0],[-92.14813773047773,75.0],[-92.06114661399994,74.96283600500004],[-92.07945716099994,74.93691640800006],[-92.01183020699995,74.90961334800005],[-92.0137426419999,74.85504791900007],[-92.06273352799991,74.80341217700004],[-91.80577551999994,74.73826732000003],[-91.88084876199991,74.71161530200004],[-91.66600501199991,74.72675202000005],[-91.62083899599992,74.71161530200004],[-91.68907630099994,74.68366120000007],[-91.51349850199995,74.64472077000005],[-91.3684789699999,74.64858633000006],[-91.33946692599994,74.68878815300008],[-91.37376868399991,74.70408763200004],[-91.33043372299994,74.72093333500004],[-91.29527747299994,74.70522695500006],[-91.28563391799992,74.63589101800005],[-91.09943600199995,74.62905508000006],[-91.23037675699993,74.73826732000003],[-91.09943600199995,74.75250885600008],[-90.78677324099993,74.88963450700004],[-90.75682532499991,74.88287995000007],[-90.75682532499991,74.83441803600005],[-91.0249731109999,74.70408763200004],[-90.90550696499992,74.68695709800005],[-90.84618079299992,74.72528717700004],[-90.72329667899993,74.73826732000003],[-90.76366126199991,74.71775950700004],[-90.73009192599994,74.66315338700008],[-90.5637914699999,74.60858795800004],[-90.31175696499992,74.62905508000006],[-90.37319902299993,74.60175202000005],[-90.11074785099993,74.55467357000003],[-90.00865637899994,74.59064362200007],[-89.91852779899995,74.52728913000004],[-89.43443762899994,74.55329010600008],[-89.38182532499991,74.58771393400008],[-89.14736894399994,74.60789622600004],[-89.0989477199999,74.68707916900007],[-89.27025305899991,74.75873444200005],[-89.06029212099992,74.72223541900007],[-89.01016191299993,74.78607819200005],[-89.0989477199999,74.84072500200006],[-89.0,74.81037862421472],[-89.0,74.0],[-89.0,73.26655486830194],[-89.05121822799993,73.25169505400004],[-89.0,73.24088893262824],[-89.0,73.21841858078018],[-89.04120846299992,73.21893952000005],[-89.14753170499995,73.18622467700004],[-89.18089758999992,73.15550364800004],[-89.12568111899992,73.14809804900005],[-89.21845455599993,73.13174062700006],[-89.31187903599994,73.05247630400004],[-89.2149145169999,73.01325104400007],[-89.30146236899992,73.01862213700008],[-89.33013454824429,73.0],[-90.0,73.0],[-90.0,72.02623816486224],[-90.0039770169999,72.02460358300004],[-90.0,72.00637015485806],[-90.0,72.0],[-90.0,71.98871375909131],[-90.11860104099992,71.92885976800005],[-90.0,71.87386582372821],[-90.0,71.62720097588101],[-90.04491126199991,71.59666575700004],[-90.0,71.56426304991322],[-90.0,71.52100592817156],[-90.01020260299993,71.51752350500004],[-90.0,71.5000736375799],[-90.0,71.45854314979105],[-90.0039770169999,71.45604075700004],[-90.0,71.45296385257775],[-90.0,71.0],[-89.29439162673427,71.0],[-89.18842525899993,70.96259186400005],[-89.44908606699994,70.90802643400008],[-89.29845130099994,70.77741120000007],[-89.01024329299992,70.66095612200007],[-89.0,70.64941421240516],[-89.0,70.0],[-88.0,70.0],[-87.1302741783154,70.0],[-87.08421790299991,69.98940664300005],[-87.05358997939075,70.0],[-87.0,70.0],[-86.92317404066519,70.0],[-86.77692623599995,69.97125885600008],[-86.50352942599994,69.98590729400007],[-86.48380335625673,70.0],[-86.0,70.0],[-85.80272570746313,70.0],[-85.78290768099993,69.99518463700008],[-85.74019396423722,70.0],[-85.29962822967141,70.0],[-85.23460852799991,69.99624258000006],[-85.2517438511385,70.0],[-85.0,70.0],[-85.0,69.80887069768453],[-85.02928626199991,69.80646393400008],[-85.05577551999994,69.77708567900004],[-85.32017981699994,69.84699127800008],[-85.56322180899991,69.85809967700004],[-85.59019934799994,69.83234284100007],[-85.37075761599993,69.82489655200004],[-85.33315995999993,69.79136790600006],[-85.39167232999995,69.75604889500005],[-85.39785722599993,69.78534577000005],[-85.5144750639999,69.77024974200003],[-85.44001217399995,69.71190013200004],[-85.54409745999993,69.65350983300004],[-85.38536536399994,69.56419505400004],[-85.48033606699994,69.56419505400004],[-85.53156490799995,69.52598704600007],[-85.53404700399994,69.46332428600005],[-85.34439042899993,69.44135163000004],[-85.41201738199993,69.44810618700006],[-85.38524329299992,69.41868724200003],[-85.50829016799992,69.40778229400007],[-85.44001217399995,69.36619700700004],[-85.45628821499992,69.34760163000004],[-85.33698482999995,69.31842682500007],[-85.48818925699993,69.32636139500005],[-85.47350012899994,69.27680084800005],[-85.39159094999991,69.21539948100008],[-85.20661373599995,69.18805573100008],[-85.3164770169999,69.15391673400006],[-85.27025305899991,69.13788483300004],[-85.01227779899995,69.18048737200007],[-85.0,69.17748836845615],[-85.0,69.17045214901209],[-85.13829505099994,69.12665436400005],[-85.0,69.13709604932947],[-85.0,69.12857450665555],[-85.02847245999993,69.11920807500007],[-85.0,69.10891760900205],[-85.0,69.0],[-86.0,69.0],[-86.0,68.01425775582776],[-86.03491597787746,68.0],[-86.10716919033982,68.0],[-86.13060462099992,68.01605866100005],[-86.12997619005087,68.0],[-86.39717539125316,68.0],[-86.43541419199994,68.09813060100004],[-86.40782630099994,68.20774974200003],[-86.68691972599993,68.31037018400008],[-86.74771074099993,68.28701406500005],[-86.89513098899994,68.19513580900008],[-86.89785722599993,68.13788483300004],[-86.98737545499995,68.08429596600007],[-86.84788977799991,68.02216217700004],[-86.83999394150507,68.0],[-87.0,68.0],[-87.0,67.33123842486587],[-87.07770748599995,67.35765208500004],[-87.0,67.28964452547038],[-87.0,67.25814424983683],[-87.07066809799994,67.26337311400005],[-87.11412512899994,67.17894114800004],[-87.13719641799992,67.22882721600007],[-87.22813880099994,67.22809479400007],[-87.28929602799991,67.09760163000004],[-87.32778886599993,67.17328522300005],[-87.37218176999994,67.18012116100005],[-87.51618404899995,67.11871979400007],[-87.50194251199991,67.19379303600005],[-87.36294511599993,67.26719798400006],[-87.44737708199995,67.26386139500005],[-87.48379472599993,67.36310455900008],[-87.9407445949999,67.60468170800004],[-88.0,67.62426857601703],[-88.0,68.0],[-88.0,68.2261088432092],[-87.94375566299993,68.20087311400005],[-87.8445531889999,68.25580475500004],[-87.79222571499992,68.33124420800004],[-87.8308813139999,68.46869538000004],[-87.94131425699993,68.58763255400004],[-87.92650305899991,68.68720123900005],[-88.0,68.78008369839601],[-88.0,69.0],[-88.46478154232462,69.0],[-88.7285863919999,69.08392975500004],[-88.84569251199991,69.13963450700004],[-88.94196529899995,69.23358795800004],[-89.19871985599991,69.27806224200003],[-89.33169511599993,69.24949778900003],[-89.44155839799993,69.15391673400006],[-89.70531165299991,69.02020905200004],[-89.71810422350276,69.0],[-90.0,69.0],[-90.0,70.0],[-91.0,70.0],[-92.0,70.0],[-92.0,70.00384446125368],[-91.9429418609999,70.02411530200004],[-92.0,70.04591789366198],[-92.0,70.12430849814179],[-91.99547278599994,70.12303294500003],[-91.51097571499992,70.16132233300004],[-91.64098059799994,70.23407623900005],[-91.69652258999992,70.20225657800006],[-91.73070227799991,70.30467357000003],[-91.68907630099994,70.31834544500003],[-91.72321529899995,70.35578034100007],[-91.78624426999994,70.33649323100008],[-91.87852942599994,70.36473216400003],[-91.90534420499995,70.33991120000007],[-91.8535863919999,70.30467357000003],[-91.92076575399994,70.29930247600004],[-91.95864824099993,70.25775788000004],[-91.99962317599994,70.30316803600005],[-92.0,70.30317458176968],[-92.0,70.32315182768953],[-91.99071204299992,70.32514069200005],[-91.97642981699994,70.36676666900007],[-92.0,70.37612234712026],[-92.0,71.0],[-92.8753680102418,71.0],[-92.85411536399994,71.04515208500004],[-92.88621985599991,71.07066478100006],[-92.8587133449999,71.15863678600005],[-92.93724524599992,71.22333405200004],[-92.94786536399994,71.29490794500003],[-92.99746660099993,71.31891510600008],[-92.99063066299993,71.35712311400005],[-93.0,71.35868265835595],[-93.0,72.0],[-93.0,72.76625900532764]]],[[[-93.46715564946689,75.0],[-93.53453528599994,75.04466380400004],[-93.64240475199995,75.03994375200006],[-93.49156653599994,75.07404205900008],[-93.51203365799995,75.09516022300005],[-93.46226966099994,75.13507721600007],[-93.58031165299991,75.20502350500004],[-93.49937903599994,75.26801178600005],[-93.80003821499992,75.30744049700007],[-93.6492406889999,75.32786692900004],[-93.67650305899991,75.36204661700003],[-93.98741614499994,75.43927643400008],[-94.0,75.44438303543573],[-94.0,76.0],[-93.0,76.0],[-93.0,75.0],[-93.46715564946689,75.0]]],[[[-80.54185950399994,74.56354401200008],[-80.21751868399991,74.58746979400007],[-80.23180091099994,74.60175202000005],[-80.15623938699991,74.63686758000006],[-80.19701087099992,74.64264557500007],[-80.1765844389999,74.66315338700008],[-80.20474199099993,74.69733307500007],[-80.12877356699994,74.71775950700004],[-80.2454320949999,74.75873444200005],[-80.10081946499992,74.79352448100008],[-80.12254798099991,74.81395091400003],[-80.10081946499992,74.82762278900003],[-80.41055253799993,74.90180084800005],[-80.31314042899993,74.94155508000006],[-80.26203365799995,74.87938060100004],[-80.19017493399991,74.89594147300005],[-80.1966039699999,74.94342682500007],[-80.14586341099994,74.92023346600007],[-80.16673743399991,74.86334870000007],[-79.90904700399994,74.81395091400003],[-79.33429928299995,74.90338776200008],[-79.56017005099994,74.99152252800008],[-79.50499426999994,74.99896881700005],[-79.77993730399993,75.03245677300004],[-80.05931555899991,74.96092357000003],[-80.24913489499994,74.95351797100005],[-80.2761938139999,74.96857330900008],[-80.1765844389999,74.98529694200005],[-80.24838090522083,75.0],[-80.0,75.0],[-80.0,75.09368134354615],[-79.96865800699993,75.09747955900008],[-79.93553626199991,75.14126211100006],[-79.83364824099993,75.17316315300008],[-79.62848873599995,75.18024323100008],[-79.5169164699999,75.22923411700003],[-79.44351152299993,75.28701406500005],[-79.61485755099994,75.30369700700004],[-79.53258216099994,75.32733795800004],[-79.49132239499994,75.38251373900005],[-79.68309485599991,75.43773021000004],[-79.57384192599994,75.45148346600007],[-79.64981035099993,75.46979401200008],[-80.0,75.46751724938392],[-80.0,75.53140695843877],[-79.9500219389999,75.54022858300004],[-80.0,75.5429304988228],[-80.0,76.0],[-79.39016538968846,76.0],[-79.58348548099991,75.94814687700006],[-79.60118567599994,75.90326569200005],[-79.7520238919999,75.88279857000003],[-79.58690344999991,75.86155833500004],[-79.56639563699991,75.84495677300004],[-79.59373938699991,75.82135651200008],[-79.43814042899993,75.79535553600005],[-79.34044348899994,75.82880280200004],[-79.42983964799993,75.84808991100005],[-79.27916419199994,75.87653229400007],[-79.04662024599992,75.87616608300004],[-79.02521725199995,75.86981842700004],[-79.07359778599994,75.84808991100005],[-78.89647376199991,75.84259674700007],[-78.87498938699991,75.85553620000007],[-79.14806067599994,75.92495351800005],[-79.17601477799991,75.95795319200005],[-79.05139769145981,76.0],[-79.0,76.0],[-78.0,76.0],[-78.0,76.63722309143286],[-77.7707820299999,76.66429271000004],[-77.8127742179999,76.68809642100007],[-77.7663874989999,76.72789134300007],[-77.78978430899991,76.77631256700005],[-77.71621660099993,76.82196686400005],[-77.89492753799993,76.86912669500003],[-77.8335261709999,76.89085521000004],[-77.9023738269999,76.91819896000004],[-77.88923092399995,76.94977448100008],[-78.0,76.98990172451585],[-78.0,77.0],[-77.0,77.0],[-76.0,77.0],[-75.0,77.0],[-75.0,78.0],[-74.0,78.0],[-73.0,78.0],[-72.31801252257104,78.0],[-72.22801673099991,77.95966217700004],[-72.24168860599991,77.93854401200008],[-72.0,77.90266241513248],[-72.0,77.44464027241155],[-72.23424231699994,77.45872630400004],[-72.57681230399993,77.41160716400003],[-72.09752356699994,77.33901601800005],[-72.13182532499991,77.32160065300008],[-72.0,77.31968451440022],[-72.0,77.0],[-71.30967564691724,77.0],[-71.09715735599991,76.93178945500006],[-71.12144934799994,76.95087311400005],[-71.08283443899995,76.96588776200008],[-70.67878170499995,76.93862539300005],[-70.98721269399994,76.89704010600008],[-70.52110755099994,76.78717682500007],[-70.05016028599994,76.89203522300005],[-70.0,76.91232907919539],[-70.0,76.84966235633877],[-70.10338294199994,76.80145905200004],[-70.0,76.77299753501731],[-70.0,76.57137463355421],[-70.0344945949999,76.56806061400005],[-70.0,76.56475199689721],[-70.0,76.0],[-69.0,76.0],[-68.0,76.0],[-67.25361717197029,76.0],[-67.09756425699993,75.98948802300004],[-66.48843339799993,75.90985748900005],[-66.45128333199995,75.92377350500004],[-66.66991138391509,76.0],[-66.0,76.0],[-65.0,76.0],[-64.0,76.0],[-63.0,76.0],[-62.0,76.0],[-61.0,76.0],[-60.114357278652584,76.0],[-60.139515753999945,75.98582591400003],[-59.98863684799994,75.96539948100008],[-60.01659094999991,75.93744538000004],[-59.9934789699999,75.92914459800005],[-59.755848761999914,75.97223541900007],[-59.59142005099994,75.91693756700005],[-59.796864386999914,75.84186432500007],[-59.81468665299991,75.81948476800005],[-59.77293860599991,75.80141836100006],[-59.640288865999935,75.81244538000004],[-59.50365149599992,75.86676666900007],[-59.27220618399991,75.88011302300004],[-59.139515753999945,75.84186432500007],[-59.30337480399993,75.81452057500007],[-59.22150631399995,75.80093008000006],[-59.282866990999935,75.76609935100004],[-59.098866339999915,75.77537669500003],[-59.05703691299993,75.74371979400007],[-59.07681230399993,75.71149323100008],[-59.04161536399994,75.70136139500005],[-59.0,75.7056586056575],[-59.0,75.0],[-60.0,75.0],[-61.0,75.0],[-62.0,75.0],[-63.0,75.0],[-64.0,75.0],[-65.0,75.0],[-66.0,75.0],[-67.0,75.0],[-68.0,75.0],[-68.0,74.0],[-69.0,74.0],[-69.0,73.0],[-68.0,73.0],[-68.0,72.0],[-67.0,72.0],[-67.0,71.0],[-68.0,71.0],[-69.0,71.0],[-70.0,71.0],[-70.57662924152052,71.0],[-70.62144934799994,71.06932200700004],[-70.86164303299995,71.10907623900005],[-71.20185299399992,71.00698476800005],[-71.20800487431812,71.0],[-71.34874273233004,71.0],[-71.34349524599992,71.00763580900008],[-71.85973059799994,71.07855866100005],[-72.0,71.0496744922226],[-72.0,71.09181161599837],[-71.86095130099994,71.11347077000005],[-71.47052975199995,71.06565989800004],[-71.34357662699995,71.16803620000007],[-71.11705481699994,71.27045319200005],[-71.54430091099994,71.50511302300004],[-72.0,71.57765001642723],[-72.0,72.0],[-73.0,72.0],[-74.0,72.0],[-74.15416181380077,72.0],[-74.2422582669999,72.07990143400008],[-75.06318111899992,72.12824127800008],[-75.19603430899991,72.02423737200007],[-75.40726300695734,72.0],[-75.58811183045951,72.0],[-75.58539791599992,72.00409577000005],[-75.22227942599994,72.06928131700005],[-75.65770423099991,72.12433502800008],[-76.0,72.06034251943184],[-76.0,72.0928531711514],[-75.63914954299992,72.14508698100008],[-75.24596106699994,72.12848541900007],[-74.94172115799995,72.25739166900007],[-75.15339107999995,72.41567617400005],[-75.19835364499994,72.49762604400007],[-75.93989010299993,72.59223053600005],[-76.0,72.5751397281471],[-76.0,73.0],[-76.26647405949983,73.0],[-76.32518469999991,73.03266022300005],[-76.2774145169999,73.05247630400004],[-76.31895911399994,73.05996328300006],[-76.24327551999994,73.09345123900005],[-76.63426673099991,73.16982656500005],[-76.58356686099995,73.21922435100004],[-76.72740637899994,73.27777741100005],[-76.75035559799994,73.29889557500007],[-76.70197506399995,73.30634186400005],[-76.71442623599995,73.32249583500004],[-77.0,73.35438097768619],[-77.0,74.0],[-78.0,74.0],[-79.0,74.0],[-80.0,74.0],[-81.0,74.0],[-81.0,74.57583130549821],[-80.54185950399994,74.56354401200008]]],[[[-84.00751705599993,73.50495026200008],[-84.0,73.50387792876107],[-84.0,73.45880460845729],[-84.18219967399995,73.47768789300005],[-84.65802975199995,73.39508698100008],[-84.57258053299995,73.32200755400004],[-84.34264075399994,73.23126862200007],[-84.63133704299992,73.29999420800004],[-84.79723059799994,73.39093659100007],[-85.0,73.3466191182862],[-85.0,73.6557434528113],[-84.9519750639999,73.66766998900005],[-84.8367406889999,73.74518463700008],[-85.0,73.78574012747667],[-85.0,74.0],[-85.0,74.70048184181694],[-84.95718339799993,74.68109772300005],[-84.99437415299991,74.64887116100005],[-84.98745683499993,74.57440827000005],[-84.9148656889999,74.51235586100006],[-84.25829016799992,74.50649648600006],[-84.04393469999991,74.54315827000005],[-83.62035071499992,74.54555898600006],[-83.49351966099994,74.57782623900005],[-83.44566809799994,74.66315338700008],[-83.32217363199993,74.76215241100005],[-83.5020238919999,74.83002350500004],[-83.56248938699991,74.89232005400004],[-83.49168860599991,74.90949127800008],[-83.35879472599993,74.85635000200006],[-83.07848059799994,74.81582265800006],[-83.03750566299993,74.77610911700003],[-83.11774654899995,74.73749420800004],[-83.1172582669999,74.66937897300005],[-83.0,74.59930941910619],[-83.0,74.0],[-84.0,74.0],[-84.0,73.50654867594153],[-84.00751705599993,73.50495026200008]]],[[[-84.45885169199994,73.06244538000004],[-85.0,73.12780724509022],[-85.0,73.19516464565679],[-84.56920325399994,73.11456940300008],[-84.0,73.06459627016227],[-84.0,73.04257274231419],[-84.45885169199994,73.06244538000004]]],[[[-86.0,75.53138378923825],[-86.1516820949999,75.50877513200004],[-86.0,75.48330531920968],[-86.0,75.4215751095088],[-86.61803137899994,75.36888255400004],[-86.36481686099995,75.43036530200004],[-86.57990475199995,75.47760651200008],[-86.77782141799992,75.47601959800005],[-87.0,75.54296407472388],[-87.0,76.0],[-86.0,76.0],[-86.0,75.53138378923825]]],[[[-67.0,68.44662076904709],[-67.12909908799992,68.48236725500004],[-67.09434973899994,68.45441315300008],[-67.12470455599993,68.41331614800004],[-67.34142005099994,68.41347890800006],[-67.19054114499994,68.43390534100007],[-67.24168860599991,68.49087148600006],[-67.27314205599993,68.45441315300008],[-67.32868404899995,68.50145091400003],[-67.37616939999992,68.47492096600007],[-67.54857337099992,68.49225495000007],[-67.57477779899995,68.48859284100007],[-67.55077063699991,68.42788320500006],[-67.60627193899995,68.38410065300008],[-67.62999426999994,68.49310944200005],[-67.49225826699995,68.53009674700007],[-67.66413326699995,68.56468333500004],[-67.85895748599995,68.55023834800005],[-67.89631100199995,68.43390534100007],[-67.95836341099994,68.39980703300006],[-67.90758216099994,68.45612213700008],[-67.93342037699995,68.56004466400003],[-68.0,68.53019727656454],[-68.0,68.74044706967088],[-67.66344153599994,68.70140208500004],[-68.0,68.75322780329674],[-68.0,68.78484274643542],[-67.87775631399995,68.77118561400005],[-67.77338619699992,68.78400299700007],[-68.0,68.82037912647606],[-68.0,68.85598953620908],[-67.99901282499991,68.85590241100005],[-67.97264563699991,68.86591217700004],[-68.0,68.87558019871248],[-68.0,68.9725404443824],[-67.95983874154437,69.0],[-67.0,69.0],[-67.0,68.44662076904709]]],[[[-67.06529700399994,68.29612864800004],[-67.29364986899992,68.24213288000004],[-67.27476966099994,68.19525788000004],[-67.37970943899995,68.12881094000005],[-67.60212154899995,68.16705963700008],[-67.38508053299995,68.15420156500005],[-67.32774817599994,68.18691640800006],[-67.31700598899994,68.25535716400003],[-67.23896236899992,68.29677969000005],[-67.01244055899991,68.31785716400003],[-67.0325414699999,68.32664622600004],[-67.21979732999995,68.36066315300008],[-67.33519446499992,68.32404205900008],[-67.33141028599994,68.34959544500003],[-67.40351314999992,68.35512929900005],[-67.53636633999992,68.30817291900007],[-67.56114661399994,68.25580475500004],[-67.68224036399994,68.24152252800008],[-67.57477779899995,68.27692291900007],[-67.57477779899995,68.31785716400003],[-67.52696692599994,68.34454987200007],[-67.7493383449999,68.31769440300008],[-67.85138912699995,68.26162344000005],[-67.87616939999992,68.28339264500005],[-67.79389400899993,68.33771393400008],[-67.40314693899995,68.39695872600004],[-67.02245032499991,68.36155833500004],[-67.0,68.37216992621974],[-67.0,68.28512278081605],[-67.06529700399994,68.29612864800004]]]]}}]}